"id","zip_code","municipality","county","lat","lng","locality","locations"
35408,11115,"Lidingö","Stockholm",,,"STOCKHOLM","{300000,400018,440016,400021,500004,600021}"
35409,11120,"Stockholm","Stockholm",59.3326,18.0649,"STOCKHOLM","{300000,440016,500001}"
35410,11121,"Stockholm","Stockholm",59.3326,18.0649,"STOCKHOLM","{300000,440016,500001}"
35411,11122,"Stockholm","Stockholm",59.3326,18.0649,"STOCKHOLM","{300000,440016,400020,500001,500013,600012}"
35412,11123,"Stockholm","Stockholm",59.3326,18.0649,"STOCKHOLM","{300000,440016,500001,600012}"
35413,11124,"Stockholm","Stockholm",59.3326,18.0649,"STOCKHOLM","{300000,440016,500001}"
35414,11127,"Stockholm","Stockholm",59.3326,18.0649,"STOCKHOLM","{300000,440016,500000,600052,600045}"
35415,11128,"Stockholm","Stockholm",59.3326,18.0649,"STOCKHOLM","{300000,440016,500000,500001,600052,600045}"
35416,11129,"Stockholm","Stockholm",59.3326,18.0649,"STOCKHOLM","{300000,440016,500000,600045}"
35417,11130,"Stockholm","Stockholm",59.3326,18.0649,"STOCKHOLM","{300000,440016,500000,600045}"
35418,11131,"Stockholm","Stockholm",59.3326,18.0649,"STOCKHOLM","{300000,440016,500000,600045}"
35419,11134,"Stockholm","Stockholm",59.3326,18.0649,"STOCKHOLM","{300000,440016,500001}"
35420,11135,"Stockholm","Stockholm",59.3326,18.0649,"STOCKHOLM","{300000,440016,500001}"
35421,11136,"Stockholm","Stockholm",59.3326,18.0649,"STOCKHOLM","{300000,440016,500001}"
35422,11137,"Stockholm","Stockholm",59.3326,18.0649,"STOCKHOLM","{300000,440016,500001}"
35423,11138,"Stockholm","Stockholm",59.3326,18.0649,"STOCKHOLM","{300000,440016,500001}"
35424,11139,"Stockholm","Stockholm",59.3326,18.0649,"STOCKHOLM","{300000,440016,500001}"
35425,11140,"Stockholm","Stockholm",59.3326,18.0649,"STOCKHOLM","{300000,440016,500001,600012}"
35426,11143,"Stockholm","Stockholm",59.3326,18.0649,"STOCKHOLM","{300000,440016,500001}"
35427,11144,"Stockholm","Stockholm",59.3326,18.0649,"STOCKHOLM","{300000,440016,500001}"
35428,11145,"Stockholm","Stockholm",59.3326,18.0649,"STOCKHOLM","{300000,440016,500001}"
35429,11146,"Stockholm","Stockholm",59.3326,18.0649,"STOCKHOLM","{300000,440016,500001}"
35430,11147,"Stockholm","Stockholm",59.3326,18.0649,"STOCKHOLM","{300000,440016,500001,500004}"
35431,11148,"Stockholm","Stockholm",59.3326,18.0649,"STOCKHOLM","{300000,440016,500001,500000,500004,600045,600105,600106}"
35432,11149,"Stockholm","Stockholm",59.3326,18.0649,"STOCKHOLM","{300000,440016,500001,500000,500004,600045,600105,600106}"
35433,11151,"Stockholm","Stockholm",59.3326,18.0649,"STOCKHOLM","{300000,440016,500001}"
35434,11152,"Stockholm","Stockholm",59.3326,18.0649,"STOCKHOLM","{300000,440016,500000,500001,500013,600052,600045}"
35435,11153,"Stockholm","Stockholm",59.3326,18.0649,"STOCKHOLM","{300000,440016,500001}"
35436,11156,"Stockholm","Stockholm",59.3326,18.0649,"STOCKHOLM","{300000,440016,500001}"
35437,11157,"Stockholm","Stockholm",59.3326,18.0649,"STOCKHOLM","{300000,440016,500001}"
35438,11160,"Stockholm","Stockholm",59.3326,18.0649,"STOCKHOLM","{300000,440016,500001}"
35439,11161,"Stockholm","Stockholm",59.3326,18.0649,"STOCKHOLM","{300000,440016,500001,600012}"
35440,11164,"Stockholm","Stockholm",59.3326,18.0649,"STOCKHOLM","{300000,440016,500001,500013}"
35441,11215,"Stockholm","Stockholm",0,0,"STOCKHOLM","{300000,440016,400020,500005,500013,600102,600070,600072}"
35442,11216,"Stockholm","Stockholm",0,0,"STOCKHOLM","{300000,440016,400020,500013,600102}"
35443,11217,"Stockholm","Stockholm",0,0,"STOCKHOLM","{300000,440016,400020,500013,600102}"
35444,11218,"Stockholm","Stockholm",0,0,"STOCKHOLM","{300000,440016,500013,600070,600102}"
35445,11219,"Stockholm","Stockholm",0,0,"STOCKHOLM","{300000,440016,500013,600044,600102}"
35446,11220,"Stockholm","Stockholm",59.3326,18.0649,"STOCKHOLM","{300000,440016,500000,500013,600052,600053}"
35447,11221,"Stockholm","Stockholm",59.3326,18.0649,"STOCKHOLM","{300000,440016,500013}"
35448,11222,"Stockholm","Stockholm",59.3326,18.0649,"STOCKHOLM","{300000,440016,500013}"
35449,11223,"Stockholm","Stockholm",59.3326,18.0649,"STOCKHOLM","{300000,440016,500013}"
35450,11224,"Stockholm","Stockholm",59.3326,18.0649,"STOCKHOLM","{300000,440016,500013}"
35451,11225,"Stockholm","Stockholm",59.3326,18.0649,"STOCKHOLM","{300000,440016,500013}"
35452,11226,"Stockholm","Stockholm",59.3326,18.0649,"STOCKHOLM","{300000,440016,500013}"
35453,11227,"Stockholm","Stockholm",59.3326,18.0649,"STOCKHOLM","{300000,440016,500013}"
35454,11228,"Stockholm","Stockholm",59.3326,18.0649,"STOCKHOLM","{300000,440016,500013}"
35455,11229,"Stockholm","Stockholm",59.3326,18.0649,"STOCKHOLM","{300000,440016,500013}"
35456,11230,"Stockholm","Stockholm",59.3326,18.0649,"STOCKHOLM","{300000,440016,500013}"
35457,11231,"Stockholm","Stockholm",59.3326,18.0649,"STOCKHOLM","{300000,440016,500013}"
35458,11232,"Stockholm","Stockholm",59.3326,18.0649,"STOCKHOLM","{300000,440016,500013}"
35459,11233,"Stockholm","Stockholm",59.3326,18.0649,"STOCKHOLM","{300000,440016,500001,500013,600012}"
35460,11234,"Stockholm","Stockholm",59.3326,18.0649,"STOCKHOLM","{300000,440016,500013}"
35461,11235,"Stockholm","Stockholm",59.3326,18.0649,"STOCKHOLM","{300000,440016,500000,500013,600053,600044}"
35462,11236,"Stockholm","Stockholm",59.3326,18.0649,"STOCKHOLM","{300000,440016,500013}"
35463,11237,"Stockholm","Stockholm",59.3326,18.0649,"STOCKHOLM","{300000,440016,500013}"
35464,11238,"Stockholm","Stockholm",59.3326,18.0649,"STOCKHOLM","{300000,440016,500013}"
35465,11239,"Stockholm","Stockholm",59.3326,18.0649,"STOCKHOLM","{300000,440016,500013}"
35466,11240,"Stockholm","Stockholm",59.3326,18.0649,"STOCKHOLM","{300000,440016,500013,600044}"
35467,11241,"Stockholm","Stockholm",59.3326,18.0649,"STOCKHOLM","{300000,440016,500013,600044}"
35468,11242,"Stockholm","Stockholm",59.3326,18.0649,"STOCKHOLM","{300000,440016,500013,600044}"
35469,11243,"Stockholm","Stockholm",59.3326,18.0649,"STOCKHOLM","{300000,440016,500013,600070,600071,600102}"
35470,11244,"Stockholm","Stockholm",59.3326,18.0649,"STOCKHOLM","{300000,440016,500013,600070}"
35471,11245,"Stockholm","Stockholm",59.3326,18.0649,"STOCKHOLM","{300000,440016,500013,600102}"
35472,11246,"Stockholm","Stockholm",59.3326,18.0649,"STOCKHOLM","{300000,440016,500013}"
35473,11247,"Stockholm","Stockholm",59.3326,18.0649,"STOCKHOLM","{300000,440016,500013}"
35474,11248,"Stockholm","Stockholm",59.3326,18.0649,"STOCKHOLM","{300000,440016,400020,500013,600102}"
35475,11249,"Stockholm","Stockholm",59.3326,18.0649,"STOCKHOLM","{300000,440016,500013,600102}"
35476,11250,"Stockholm","Stockholm",59.3326,18.0649,"STOCKHOLM","{300000,440016,500013,600102}"
35477,11251,"Stockholm","Stockholm",59.3326,18.0649,"STOCKHOLM","{300000,440016,500013,600070,600102}"
35478,11252,"Stockholm","Stockholm",59.3326,18.0649,"STOCKHOLM","{300000,440016,500005,500013,600071,600070,600072}"
35479,11253,"Stockholm","Stockholm",59.3326,18.0649,"STOCKHOLM","{300000,440016,500005,500013,600070,600072}"
35480,11254,"Stockholm","Stockholm",59.3326,18.0649,"STOCKHOLM","{300000,440016,500013,600071,600073}"
35481,11255,"Stockholm","Stockholm",59.3326,18.0649,"STOCKHOLM","{300000,440016,500005,500013,600071,600072}"
35482,11256,"Stockholm","Stockholm",59.3326,18.0649,"STOCKHOLM","{300000,440016,500013,600071,600044}"
35483,11257,"Stockholm","Stockholm",59.3326,18.0649,"STOCKHOLM","{300000,440016,500013,600071}"
35484,11258,"Stockholm","Stockholm",59.3326,18.0649,"STOCKHOLM","{300000,440016,500013,600071,600044}"
35485,11259,"Stockholm","Stockholm",59.3326,18.0649,"STOCKHOLM","{300000,440016,500013,600102,600071,600070,600044}"
35486,11260,"Stockholm","Stockholm",59.3326,18.0649,"STOCKHOLM","{300000,440016,500000,500013,600073,600053,600044}"
35487,11261,"Stockholm","Stockholm",59.3326,18.0649,"STOCKHOLM","{300000,440016,500013,600073}"
35488,11262,"Stockholm","Stockholm",59.3326,18.0649,"STOCKHOLM","{300000,440016,500013,600071,600073,600044}"
35489,11263,"Stockholm","Stockholm",59.3326,18.0649,"STOCKHOLM","{300000,440016,500013,600073}"
35490,11264,"Stockholm","Stockholm",59.3326,18.0649,"STOCKHOLM","{300000,440016,500005,500009,500013,600071,600037,600046,600025,600069,600073}"
35491,11265,"Stockholm","Stockholm",59.3326,18.0649,"STOCKHOLM","{300000,440016,500013,500005,600046,600073,600032,600025}"
35492,11266,"Stockholm","Stockholm",59.3326,18.0649,"STOCKHOLM","{300000,440016,500013,600025}"
35493,11267,"Stockholm","Stockholm",59.3326,18.0649,"STOCKHOLM","{300000,440016,500000,500009,500013,600025,600037,600073,600053}"
35494,11269,"Stockholm","Stockholm",59.3326,18.0649,"STOCKHOLM","{300000,440016,500013}"
35495,11320,"Stockholm","Stockholm",59.3326,18.0649,"STOCKHOLM","{300000,440016,500001,600012}"
35496,11321,"Stockholm","Stockholm",59.3326,18.0649,"STOCKHOLM","{300000,440016,500001,600012}"
35497,11322,"Stockholm","Stockholm",59.3326,18.0649,"STOCKHOLM","{300000,440016,500001,600012}"
35498,11323,"Stockholm","Stockholm",59.3326,18.0649,"STOCKHOLM","{300000,440016,500001,600012}"
35499,11324,"Stockholm","Stockholm",59.3326,18.0649,"STOCKHOLM","{300000,440016,500001,600012}"
35500,11325,"Stockholm","Stockholm",59.3326,18.0649,"STOCKHOLM","{300000,440016,500001,600012}"
35501,11326,"Stockholm","Stockholm",59.3326,18.0649,"STOCKHOLM","{300000,440016,500001,600012}"
35502,11327,"Stockholm","Stockholm",59.3326,18.0649,"STOCKHOLM","{300000,440016,500001,600012}"
35503,11328,"Stockholm","Stockholm",59.3326,18.0649,"STOCKHOLM","{300000,440016,500001,600012}"
35504,11329,"Stockholm","Stockholm",59.3326,18.0649,"STOCKHOLM","{300000,440016,500001,600012}"
35505,11330,"Stockholm","Stockholm",59.3326,18.0649,"STOCKHOLM","{300000,440016,500001,600012}"
35506,11331,"Stockholm","Stockholm",59.3326,18.0649,"STOCKHOLM","{300000,440016,500001,600012}"
35507,11332,"Stockholm","Stockholm",59.3326,18.0649,"STOCKHOLM","{300000,440016,500001,600012}"
35508,11333,"Stockholm","Stockholm",59.3326,18.0649,"STOCKHOLM","{300000,440016,500001,600012}"
35509,11334,"Stockholm","Stockholm",,,"STOCKHOLM","{300000,440016,500001,600012}"
35510,11335,"Stockholm","Stockholm",59.3326,18.0649,"STOCKHOLM","{300000,440016,500001,600012}"
35511,11336,"Stockholm","Stockholm",59.3326,18.0649,"STOCKHOLM","{300000,440016,500001,600012}"
35512,11337,"Stockholm","Stockholm",59.3326,18.0649,"STOCKHOLM","{300000,440016,500001,600012}"
35513,11338,"Stockholm","Stockholm",59.3326,18.0649,"STOCKHOLM","{300000,440016,500001,600012}"
35514,11339,"Stockholm","Stockholm",59.3326,18.0649,"STOCKHOLM","{300000,440016,500001,600012}"
35515,11340,"Stockholm","Stockholm",59.3326,18.0649,"STOCKHOLM","{300000,440016,400020,500001,600012}"
35516,11341,"Stockholm","Stockholm",59.3326,18.0649,"STOCKHOLM","{300000,440016,500001,600012}"
35517,11342,"Stockholm","Stockholm",59.3326,18.0649,"STOCKHOLM","{300000,440016,500001,600012}"
35518,11343,"Stockholm","Stockholm",59.3326,18.0649,"STOCKHOLM","{300000,440016,400020,500001,600012}"
35519,11344,"Stockholm","Stockholm",59.3326,18.0649,"STOCKHOLM","{300000,440016,500001,600012}"
35520,11345,"Stockholm","Stockholm",59.3326,18.0649,"STOCKHOLM","{300000,440016,500001,600012}"
35521,11346,"Stockholm","Stockholm",59.3326,18.0649,"STOCKHOLM","{300000,440016,400020,500001,600012}"
35522,11347,"Stockholm","Stockholm",59.3326,18.0649,"STOCKHOLM","{300000,440016,400020,500004,500001,600064,600012}"
35523,11348,"Stockholm","Stockholm",59.3326,18.0649,"STOCKHOLM","{300000,440016,500001,600012}"
35524,11349,"Stockholm","Stockholm",59.3326,18.0649,"STOCKHOLM","{300000,440016,500001,600012}"
35525,11350,"Stockholm","Stockholm",59.3326,18.0649,"STOCKHOLM","{300000,440016,500001,600012}"
35526,11351,"Stockholm","Stockholm",59.3326,18.0649,"STOCKHOLM","{300000,440016,500001,600012}"
35527,11352,"Stockholm","Stockholm",59.3326,18.0649,"STOCKHOLM","{300000,440016,500001,600012}"
35528,11353,"Stockholm","Stockholm",59.3326,18.0649,"STOCKHOLM","{300000,440016,500001,600012}"
35529,11354,"Stockholm","Stockholm",59.3326,18.0649,"STOCKHOLM","{300000,440016,500001,600012}"
35530,11355,"Stockholm","Stockholm",59.3326,18.0649,"STOCKHOLM","{300000,440016,500001,600012}"
35531,11356,"Stockholm","Stockholm",59.3326,18.0649,"STOCKHOLM","{300000,440016,500001,500004,600012}"
35532,11357,"Stockholm","Stockholm",59.3326,18.0649,"STOCKHOLM","{300000,440016,500001,600012}"
35533,11358,"Stockholm","Stockholm",59.3326,18.0649,"STOCKHOLM","{300000,440016,500001,600012}"
35534,11359,"Stockholm","Stockholm",59.3326,18.0649,"STOCKHOLM","{300000,440016,500001,600012}"
35535,11360,"Stockholm","Stockholm",59.3326,18.0649,"STOCKHOLM","{300000,440016,500001,600012}"
35536,11361,"Stockholm","Stockholm",0,0,"STOCKHOLM","{300000,440016,500001,600012}"
35537,11362,"Stockholm","Stockholm",59.3326,18.0649,"STOCKHOLM","{300000,440016,500001,600012}"
35538,11363,"Stockholm","Stockholm",,,"STOCKHOLM","{300000,440016,400020,500001,600012}"
35539,11364,"Stockholm","Stockholm",59.3326,18.0649,"STOCKHOLM","{300000,440016,500001,600012}"
35540,11365,"Stockholm","Stockholm",,,"STOCKHOLM","{300000,440016,500001,600012}"
35541,11367,"","",,,"STOCKHOLM","{300000,440016,400020,500001,600012}"
35542,11368,"","",,,"STOCKHOLM","{300000,440016,400020,500001,600012}"
35543,11415,"Stockholm","Stockholm",,,"STOCKHOLM","{300000,440016,500004,600064}"
35544,11416,"Stockholm","Stockholm",,,"STOCKHOLM","{300000,440016,500004,600064}"
35545,11417,"Stockholm","Stockholm",,,"STOCKHOLM","{300000,400014,440016,500004,600064}"
35546,11418,"Stockholm","Stockholm",,,"STOCKHOLM","{300000,400014,440016,400020,500004,600064}"
35547,11419,"Stockholm","Stockholm",0,0,"STOCKHOLM","{300000,440016,400020,500004,500001,600064,600012}"
35548,11420,"Stockholm","Stockholm",59.3326,18.0649,"STOCKHOLM","{300000,440016,500001,500004,600012}"
35549,11421,"Stockholm","Stockholm",59.3326,18.0649,"STOCKHOLM","{300000,440016,500004,600064}"
35550,11422,"Stockholm","Stockholm",59.3326,18.0649,"STOCKHOLM","{300000,440016,500001,500004,600064,600012}"
35551,11423,"Stockholm","Stockholm",59.3326,18.0649,"STOCKHOLM","{300000,440016,500004,600064}"
35552,11424,"Stockholm","Stockholm",59.3326,18.0649,"STOCKHOLM","{300000,440016,500001,500004}"
35553,11425,"Stockholm","Stockholm",59.3326,18.0649,"STOCKHOLM","{300000,440016,500001,500004}"
35554,11426,"Stockholm","Stockholm",59.3326,18.0649,"STOCKHOLM","{300000,440016,500004}"
35555,11427,"Stockholm","Stockholm",59.3326,18.0649,"STOCKHOLM","{300000,440016,500001,500004,600064,600021}"
35556,11428,"Stockholm","Stockholm",59.3326,18.0649,"STOCKHOLM","{300000,440016,500004,600064,600021}"
35557,11429,"Stockholm","Stockholm",59.3326,18.0649,"STOCKHOLM","{300000,440016,500001,500004}"
35558,11430,"Stockholm","Stockholm",59.3326,18.0649,"STOCKHOLM","{300000,440016,500001,500004}"
35559,11431,"Stockholm","Stockholm",59.3326,18.0649,"STOCKHOLM","{300000,440016,500004}"
35560,11432,"Stockholm","Stockholm",59.3326,18.0649,"STOCKHOLM","{300000,440016,500001,500004}"
35561,11433,"Stockholm","Stockholm",59.3326,18.0649,"STOCKHOLM","{300000,440016,500004,600064,600021}"
35562,11434,"Stockholm","Stockholm",59.3326,18.0649,"STOCKHOLM","{300000,440016,500001,500004}"
35563,11435,"Stockholm","Stockholm",59.3326,18.0649,"STOCKHOLM","{300000,440016,500001,500004}"
35564,11436,"Stockholm","Stockholm",59.3326,18.0649,"STOCKHOLM","{300000,440016,500004}"
35565,11437,"Stockholm","Stockholm",59.3326,18.0649,"STOCKHOLM","{300000,440016,500004}"
35566,11438,"Stockholm","Stockholm",59.3326,18.0649,"STOCKHOLM","{300000,440016,500004}"
35567,11439,"Stockholm","Stockholm",59.3326,18.0649,"STOCKHOLM","{300000,440016,500004}"
35568,11440,"Stockholm","Stockholm",59.3326,18.0649,"STOCKHOLM","{300000,440016,500004}"
35569,11441,"Stockholm","Stockholm",59.3326,18.0649,"STOCKHOLM","{300000,440016,500004,600021}"
35570,11442,"Stockholm","Stockholm",59.3326,18.0649,"STOCKHOLM","{300000,440016,500004}"
35571,11443,"Stockholm","Stockholm",59.3326,18.0649,"STOCKHOLM","{300000,440016,500004}"
35572,11444,"Stockholm","Stockholm",59.3326,18.0649,"STOCKHOLM","{300000,440016,500004}"
35573,11445,"Stockholm","Stockholm",59.3326,18.0649,"STOCKHOLM","{300000,440016,500004}"
35574,11446,"Stockholm","Stockholm",59.3326,18.0649,"STOCKHOLM","{300000,440016,500001,500004}"
35575,11447,"Stockholm","Stockholm",59.3326,18.0649,"STOCKHOLM","{300000,440016,500004}"
35576,11448,"Stockholm","Stockholm",59.3326,18.0649,"STOCKHOLM","{300000,440016,500004}"
35577,11449,"Stockholm","Stockholm",59.3326,18.0649,"STOCKHOLM","{300000,440016,500004}"
35578,11450,"Stockholm","Stockholm",59.3326,18.0649,"STOCKHOLM","{300000,440016,500004}"
35579,11451,"Stockholm","Stockholm",59.3326,18.0649,"STOCKHOLM","{300000,440016,500001,500004}"
35580,11452,"Stockholm","Stockholm",59.3326,18.0649,"STOCKHOLM","{300000,440016,500004}"
35581,11453,"Stockholm","Stockholm",59.3326,18.0649,"STOCKHOLM","{300000,440016,500004}"
35582,11454,"Stockholm","Stockholm",59.3326,18.0649,"STOCKHOLM","{300000,440016,500004}"
35583,11455,"Stockholm","Stockholm",59.3326,18.0649,"STOCKHOLM","{300000,440016,500004}"
35584,11456,"Stockholm","Stockholm",59.3326,18.0649,"STOCKHOLM","{300000,440016,500004}"
35585,11457,"Stockholm","Stockholm",59.3326,18.0649,"STOCKHOLM","{300000,440016,500004}"
35586,11458,"Stockholm","Stockholm",59.3326,18.0649,"STOCKHOLM","{300000,440016,500004}"
35587,11459,"Stockholm","Stockholm",59.3326,18.0649,"STOCKHOLM","{300000,440016,500004,600021}"
35588,11460,"Stockholm","Stockholm",59.3326,18.0649,"STOCKHOLM","{300000,440016,500004}"
35589,11520,"Stockholm","Stockholm",59.3326,18.0649,"STOCKHOLM","{300000,440016,500004}"
35590,11521,"Stockholm","Stockholm",59.3326,18.0649,"STOCKHOLM","{300000,400018,440016,500000,500001,500004,600105,600106,600021}"
35591,11522,"Stockholm","Stockholm",59.3326,18.0649,"STOCKHOLM","{300000,440016,500004}"
35592,11523,"Stockholm","Stockholm",59.3326,18.0649,"STOCKHOLM","{300000,440016,500004}"
35593,11524,"Stockholm","Stockholm",59.3326,18.0649,"STOCKHOLM","{300000,440016,500004}"
35594,11525,"Stockholm","Stockholm",59.3326,18.0649,"STOCKHOLM","{300000,400018,440016,400021,500004,600106,600021}"
35595,11526,"Stockholm","Stockholm",59.3326,18.0649,"STOCKHOLM","{300000,440016,500004}"
35596,11527,"Stockholm","Stockholm",59.3326,18.0649,"STOCKHOLM","{300000,440016,400021,500004,600106,600021}"
35597,11528,"Stockholm","Stockholm",59.3326,18.0649,"STOCKHOLM","{300000,440016,500004,600021}"
35598,11529,"Stockholm","Stockholm",59.3326,18.0649,"STOCKHOLM","{300000,440016,500004,600021}"
35599,11530,"Stockholm","Stockholm",59.3326,18.0649,"STOCKHOLM","{300000,440016,500004,600021}"
35600,11531,"Stockholm","Stockholm",59.3326,18.0649,"STOCKHOLM","{300000,440016,500004,600021}"
35601,11532,"Stockholm","Stockholm",59.3326,18.0649,"STOCKHOLM","{300000,440016,500004,600021}"
35602,11533,"Stockholm","Stockholm",59.3326,18.0649,"STOCKHOLM","{300000,440016,500004,600021}"
35603,11534,"Stockholm","Stockholm",59.3326,18.0649,"STOCKHOLM","{300000,440016,500004,600021}"
35604,11535,"Stockholm","Stockholm",59.3326,18.0649,"STOCKHOLM","{300000,440016,500004,600021}"
35605,11536,"Stockholm","Stockholm",59.3326,18.0649,"STOCKHOLM","{300000,440016,500004,600021}"
35606,11537,"Stockholm","Stockholm",59.3326,18.0649,"STOCKHOLM","{300000,440016,500004,600021}"
35607,11538,"Stockholm","Stockholm",59.3326,18.0649,"STOCKHOLM","{300000,440016,500004,600021}"
35608,11539,"Stockholm","Stockholm",59.3326,18.0649,"STOCKHOLM","{300000,440016,500004,600021}"
35609,11540,"Stockholm","Stockholm",59.3326,18.0649,"STOCKHOLM","{300000,440016,500004,600021}"
35610,11541,"Stockholm","Stockholm",59.3326,18.0649,"STOCKHOLM","{300000,440016,500004,600064,600065,600021}"
35611,11542,"Stockholm","Stockholm",59.3326,18.0649,"STOCKHOLM","{300000,440016,400021,400014,500004,600021,600064,600065}"
35612,11543,"Stockholm","Stockholm",59.3326,18.0649,"STOCKHOLM","{300000,440016,500004,600065,600021}"
35613,11544,"Stockholm","Stockholm",,,"STOCKHOLM","{300000,440016,500004,600064,600065}"
35614,11545,"Stockholm","Stockholm",,,"STOCKHOLM","{300000,440016,500004,600064,600065}"
35615,11546,"Stockholm","Stockholm",,,"STOCKHOLM","{300000,440016,500004,600065}"
35616,11547,"Stockholm","Stockholm",,,"STOCKHOLM","{300000,440016,500004,600064,600065}"
35617,11548,"Stockholm","Stockholm",,,"STOCKHOLM","{300000,440016,500004,600064,600065}"
35618,11549,"Stockholm","Stockholm",,,"STOCKHOLM","{300000,440016,500004,600064,600065}"
35619,11550,"Stockholm","Stockholm",59.3326,18.0649,"STOCKHOLM","{300000,440016,500004,600064,600021}"
35620,11551,"Stockholm","Stockholm",59.3326,18.0649,"STOCKHOLM","{300000,440016,500004,600064,600021}"
35621,11553,"Stockholm","Stockholm",59.3326,18.0649,"STOCKHOLM","{300000,440016,500004,600021}"
35622,11556,"Stockholm","Stockholm",59.3326,18.0649,"STOCKHOLM","{300000,440016,400021,500004,600021}"
35623,11557,"Stockholm","Stockholm",59.3326,18.0649,"STOCKHOLM","{300000,440016,500004,600064,600021}"
35624,11558,"Stockholm","Stockholm",59.3326,18.0649,"STOCKHOLM","{300000,440016,500004,600021}"
35625,11559,"Stockholm","Stockholm",59.3326,18.0649,"STOCKHOLM","{300000,440016,500004,600021}"
35626,11560,"Stockholm","Stockholm",,,"STOCKHOLM","{300000,440016,500004,600021}"
35627,11620,"Stockholm","Stockholm",59.3326,18.0649,"STOCKHOLM","{300000,440016,500000}"
35628,11621,"Stockholm","Stockholm",59.3326,18.0649,"STOCKHOLM","{300000,440016,500000}"
35629,11622,"Stockholm","Stockholm",59.3326,18.0649,"STOCKHOLM","{300000,440016,500000}"
35630,11623,"Stockholm","Stockholm",59.3326,18.0649,"STOCKHOLM","{300000,440016,500000}"
35631,11624,"Stockholm","Stockholm",59.3326,18.0649,"STOCKHOLM","{300000,440016,500000}"
35632,11625,"Stockholm","Stockholm",59.3326,18.0649,"STOCKHOLM","{300000,440016,500000}"
35633,11628,"Stockholm","Stockholm",59.3326,18.0649,"STOCKHOLM","{300000,440016,500000}"
35634,11629,"Stockholm","Stockholm",59.3326,18.0649,"STOCKHOLM","{300000,440016,500000}"
35635,11630,"Stockholm","Stockholm",59.3326,18.0649,"STOCKHOLM","{300000,440016,500000}"
35636,11631,"Stockholm","Stockholm",59.3326,18.0649,"STOCKHOLM","{300000,440016,500000}"
35637,11632,"Stockholm","Stockholm",59.3326,18.0649,"STOCKHOLM","{300000,440016,500000}"
35638,11633,"Stockholm","Stockholm",59.3326,18.0649,"STOCKHOLM","{300000,440016,500000}"
35639,11634,"Stockholm","Stockholm",59.3326,18.0649,"STOCKHOLM","{300000,440016,500000}"
35640,11635,"Stockholm","Stockholm",59.3326,18.0649,"STOCKHOLM","{300000,440016,500000}"
35641,11636,"Stockholm","Stockholm",59.3326,18.0649,"STOCKHOLM","{300000,440016,500000}"
35642,11637,"Stockholm","Stockholm",59.3326,18.0649,"STOCKHOLM","{300000,440016,500000}"
35643,11638,"Stockholm","Stockholm",59.3326,18.0649,"STOCKHOLM","{300000,440016,500000}"
35644,11639,"Stockholm","Stockholm",59.3326,18.0649,"STOCKHOLM","{300000,440016,500000}"
35645,11640,"Stockholm","Stockholm",59.3326,18.0649,"STOCKHOLM","{300000,440016,500000}"
35646,11641,"Stockholm","Stockholm",59.3326,18.0649,"STOCKHOLM","{300000,440016,500000,600029}"
35647,11642,"Stockholm","Stockholm",59.3326,18.0649,"STOCKHOLM","{300000,440016,500000}"
35648,11643,"Stockholm","Stockholm",59.3326,18.0649,"STOCKHOLM","{300000,440016,500000,600029}"
35649,11644,"Stockholm","Stockholm",59.3326,18.0649,"STOCKHOLM","{300000,400018,440016,500000,600029}"
35650,11645,"Stockholm","Stockholm",59.3326,18.0649,"STOCKHOLM","{300000,400018,440016,500001,500000,500004,600045,600029,600105,600106}"
35651,11646,"Stockholm","Stockholm",59.3326,18.0649,"STOCKHOLM","{300000,440016,500000}"
35652,11647,"Stockholm","Stockholm",59.3326,18.0649,"STOCKHOLM","{300000,440016,500000,600029}"
35653,11648,"Stockholm","Stockholm",0,0,"STOCKHOLM","{300000,440016,500000}"
35654,11661,"Stockholm","Stockholm",59.3326,18.0649,"STOCKHOLM","{300000,440016,500000}"
35655,11662,"Stockholm","Stockholm",59.3326,18.0649,"STOCKHOLM","{300000,440016,500000}"
35656,11663,"Stockholm","Stockholm",59.3326,18.0649,"STOCKHOLM","{300000,440016,500000}"
35657,11664,"Stockholm","Stockholm",59.3326,18.0649,"STOCKHOLM","{300000,440016,500000}"
35658,11665,"Stockholm","Stockholm",59.3326,18.0649,"STOCKHOLM","{300000,440016,500000}"
35659,11666,"Stockholm","Stockholm",59.3326,18.0649,"STOCKHOLM","{300000,440016,500000}"
35660,11667,"Stockholm","Stockholm",59.3326,18.0649,"STOCKHOLM","{300000,440016,500000}"
35661,11668,"Stockholm","Stockholm",59.3326,18.0649,"STOCKHOLM","{300000,440016,500000,600029}"
35662,11726,"Stockholm","Stockholm",59.3326,18.0649,"STOCKHOLM","{300000,440016,500000}"
35663,11727,"Stockholm","Stockholm",59.3326,18.0649,"STOCKHOLM","{300000,440016,500000}"
35664,11728,"Stockholm","Stockholm",59.3326,18.0649,"STOCKHOLM","{300000,440016,500000}"
35665,11729,"Stockholm","Stockholm",59.3326,18.0649,"STOCKHOLM","{300000,440016,500000}"
35666,11730,"Stockholm","Stockholm",59.3326,18.0649,"STOCKHOLM","{300000,440016,500000,600053,600054}"
35667,11731,"Stockholm","Stockholm",59.3326,18.0649,"STOCKHOLM","{300000,440016,500000,600053}"
35668,11732,"Stockholm","Stockholm",59.3326,18.0649,"STOCKHOLM","{300000,440016,500000}"
35669,11733,"Stockholm","Stockholm",59.3326,18.0649,"STOCKHOLM","{300000,440016,500000,500009,500013,600053,600037,600044,600054,600073}"
35670,11734,"Stockholm","Stockholm",59.3326,18.0649,"STOCKHOLM","{300000,440016,500000}"
35671,11735,"Stockholm","Stockholm",59.3326,18.0649,"STOCKHOLM","{300000,440016,500000}"
35672,11736,"Stockholm","Stockholm",59.3326,18.0649,"STOCKHOLM","{300000,440016,500000}"
35673,11737,"Stockholm","Stockholm",59.3326,18.0649,"STOCKHOLM","{300000,440016,500000}"
35674,11738,"Stockholm","Stockholm",59.3326,18.0649,"STOCKHOLM","{300000,440016,500000,500009,600041}"
35675,11739,"Stockholm","Stockholm",59.3326,18.0649,"STOCKHOLM","{300000,440016,500000,500009,600006,600041}"
35676,11740,"Stockholm","Stockholm",59.3326,18.0649,"STOCKHOLM","{300000,440016,500000,500009,600054,600041}"
35677,11741,"Stockholm","Stockholm",59.3326,18.0649,"STOCKHOLM","{300000,440016,500000}"
35678,11743,"Stockholm","Stockholm",59.3326,18.0649,"STOCKHOLM","{300000,440016,500009,500012,500000,600054,600006,600011,600015,600041}"
35679,11750,"Stockholm","Stockholm",59.3326,18.0649,"STOCKHOLM","{300000,440016,500000,500009,600054,600053,600037}"
35680,11756,"Stockholm","Stockholm",0,0,"STOCKHOLM","{300000,440016,500009,600041}"
35681,11757,"Stockholm","Stockholm",0,0,"STOCKHOLM","{300000,440016,500009,600041}"
35682,11758,"Stockholm","Stockholm",59.3326,18.0649,"STOCKHOLM","{300000,440016,500009,600041}"
35683,11759,"Stockholm","Stockholm",59.3326,18.0649,"STOCKHOLM","{300000,440016,500009,600041}"
35684,11760,"Stockholm","Stockholm",59.3326,18.0649,"STOCKHOLM","{300000,440016,500009,600041}"
35685,11761,"Stockholm","Stockholm",59.3326,18.0649,"STOCKHOLM","{300000,440016,500009,600041}"
35686,11762,"Stockholm","Stockholm",59.3326,18.0649,"STOCKHOLM","{300000,440016,500009,600011,600041}"
35687,11763,"Stockholm","Stockholm",59.3326,18.0649,"STOCKHOLM","{300000,440016,500009,600041}"
35688,11764,"Stockholm","Stockholm",59.3326,18.0649,"STOCKHOLM","{300000,440016,500009,600031,600041}"
35689,11765,"Stockholm","Stockholm",59.3326,18.0649,"STOCKHOLM","{300000,440016,500009,600031,600037,600041,600101}"
35690,11766,"Stockholm","Stockholm",59.3326,18.0649,"STOCKHOLM","{300000,440016,500000,500009,600041,600037,600054}"
35691,11767,"Stockholm","Stockholm",59.3326,18.0649,"STOCKHOLM","{300000,440016,500009,500000,500013,600037,600025,600053}"
35692,11768,"Stockholm","Stockholm",59.3326,18.0649,"STOCKHOLM","{300000,440016,500009,500013,600025,600031,600037}"
35693,11769,"Stockholm","Stockholm",59.3326,18.0649,"STOCKHOLM","{300000,440016,500009,500013,600025,600031,600037}"
35694,11775,"Stockholm","Stockholm",,,"STOCKHOLM","{300000,440016,500009,600041}"
35695,11820,"Stockholm","Stockholm",59.3326,18.0649,"STOCKHOLM","{300000,440016,500000,600052,600045}"
35696,11821,"Stockholm","Stockholm",59.3326,18.0649,"STOCKHOLM","{300000,440016,500000}"
35697,11822,"Stockholm","Stockholm",59.3326,18.0649,"STOCKHOLM","{300000,440016,500000}"
35698,11823,"Stockholm","Stockholm",59.3326,18.0649,"STOCKHOLM","{300000,440016,500000}"
35699,11824,"Stockholm","Stockholm",59.3326,18.0649,"STOCKHOLM","{300000,440016,500000}"
35700,11825,"Stockholm","Stockholm",59.3326,18.0649,"STOCKHOLM","{300000,440016,500000,600052,600053,600045}"
35701,11826,"Stockholm","Stockholm",59.3326,18.0649,"STOCKHOLM","{300000,440016,500000}"
35702,11827,"Stockholm","Stockholm",59.3326,18.0649,"STOCKHOLM","{300000,440016,500000}"
35703,11828,"Stockholm","Stockholm",59.3326,18.0649,"STOCKHOLM","{300000,440016,500000}"
35704,11829,"Stockholm","Stockholm",59.3326,18.0649,"STOCKHOLM","{300000,440016,500000}"
35705,11830,"Stockholm","Stockholm",0,0,"STOCKHOLM","{300000,440016,500000}"
35706,11842,"Stockholm","Stockholm",59.3326,18.0649,"STOCKHOLM","{300000,440016,500000,500009,500012,600006,600041}"
35707,11846,"Stockholm","Stockholm",59.3326,18.0649,"STOCKHOLM","{300000,440016,500000}"
35708,11847,"Stockholm","Stockholm",59.3326,18.0649,"STOCKHOLM","{300000,440016,500000}"
35709,11848,"Stockholm","Stockholm",59.3326,18.0649,"STOCKHOLM","{300000,440016,500000}"
35710,11849,"Stockholm","Stockholm",59.3326,18.0649,"STOCKHOLM","{300000,440016,500000}"
35711,11850,"Stockholm","Stockholm",59.3326,18.0649,"STOCKHOLM","{300000,440016,500000}"
35712,11851,"Stockholm","Stockholm",59.3326,18.0649,"STOCKHOLM","{300000,440016,500000}"
35713,11852,"Stockholm","Stockholm",59.3326,18.0649,"STOCKHOLM","{300000,440016,500000}"
35714,11853,"Stockholm","Stockholm",59.3326,18.0649,"STOCKHOLM","{300000,440016,500000}"
35715,11854,"Stockholm","Stockholm",59.3326,18.0649,"STOCKHOLM","{300000,440016,500000}"
35716,11855,"Stockholm","Stockholm",59.3326,18.0649,"STOCKHOLM","{300000,440016,500000}"
35717,11856,"Stockholm","Stockholm",59.3326,18.0649,"STOCKHOLM","{300000,440016,500000}"
35718,11857,"Stockholm","Stockholm",59.3326,18.0649,"STOCKHOLM","{300000,440016,500000}"
35719,11858,"Stockholm","Stockholm",59.3326,18.0649,"STOCKHOLM","{300000,440016,500000}"
35720,11859,"Stockholm","Stockholm",59.3326,18.0649,"STOCKHOLM","{300000,440016,500000}"
35721,11860,"Stockholm","Stockholm",59.3326,18.0649,"STOCKHOLM","{300000,440016,500000,500012,600006}"
35722,11861,"Stockholm","Stockholm",59.3326,18.0649,"STOCKHOLM","{300000,440016,500000}"
35723,11862,"Stockholm","Stockholm",59.3326,18.0649,"STOCKHOLM","{300000,440016,500000}"
35724,11863,"Stockholm","Stockholm",59.3326,18.0649,"STOCKHOLM","{300000,440016,500000}"
35725,11864,"Stockholm","Stockholm",59.3326,18.0649,"STOCKHOLM","{300000,440016,500000}"
35726,11865,"Stockholm","Stockholm",59.3326,18.0649,"STOCKHOLM","{300000,440016,500000}"
35727,11866,"Stockholm","Stockholm",59.3326,18.0649,"STOCKHOLM","{300000,440016,500000}"
35728,11867,"Stockholm","Stockholm",59.3326,18.0649,"STOCKHOLM","{300000,440016,500000}"
35729,11869,"Stockholm","Stockholm",59.3326,18.0649,"STOCKHOLM","{300000,440016,500000}"
35730,11872,"Stockholm","Stockholm",59.3326,18.0649,"STOCKHOLM","{300000,440016,500000}"
35731,12030,"Stockholm","Stockholm",59.3326,18.0649,"STOCKHOLM","{300000,440016,500000,500002,500012,600006,600007,600029,600039,600042}"
35732,12031,"Stockholm","Stockholm",59.3326,18.0649,"STOCKHOLM","{300000,440016,500000,600029}"
35733,12032,"Stockholm","Stockholm",59.3326,18.0649,"STOCKHOLM","{300000,440016,500000,600006,600029}"
35734,12038,"Stockholm","Stockholm",59.3,18.05,"ÅRSTA","{300000,440016,500012,600006}"
35735,12039,"Stockholm","Stockholm",59.3,18.05,"ÅRSTA","{300000,440016,500000,500012,600006,600007}"
35736,12040,"Stockholm","Stockholm",59.3,18.05,"ÅRSTA","{300000,440016,500012,600006,600043,600014,600015}"
35737,12044,"Stockholm","Stockholm",59.3,18.05,"ÅRSTA","{300000,440016,500012,600004,600006,600011,600015}"
35738,12047,"Stockholm","Stockholm",59.3,18.05,"ENSKEDE GÅRD","{300000,440016,500012,600007,600043,600014}"
35739,12048,"Stockholm","Stockholm",59.3,18.05,"ENSKEDE GÅRD","{300000,440016,500012,600007,600043}"
35740,12050,"Stockholm","Stockholm",59.3,18.05,"ÅRSTA","{300000,440016,500012,600006,600043,600014}"
35741,12051,"Stockholm","Stockholm",59.3,18.05,"ÅRSTA","{300000,440016,500012,600006}"
35742,12052,"Stockholm","Stockholm",59.3,18.05,"ÅRSTA","{300000,440016,500012,600006}"
35743,12053,"Stockholm","Stockholm",59.3,18.05,"ÅRSTA","{300000,440016,500000,500012,600006}"
35744,12054,"Stockholm","Stockholm",59.3,18.05,"ÅRSTA","{300000,440016,500012,600006}"
35745,12055,"Stockholm","Stockholm",59.3,18.05,"ÅRSTA","{300000,440016,500012,600006}"
35746,12056,"Stockholm","Stockholm",59.3,18.05,"ÅRSTA","{300000,440016,500012,600006,600014,600015}"
35747,12057,"Stockholm","Stockholm",59.3,18.05,"ÅRSTA","{300000,440016,500012,600006}"
35748,12058,"Stockholm","Stockholm",59.3,18.05,"ÅRSTA","{300000,440016,500012,600006}"
35749,12059,"Stockholm","Stockholm",59.3,18.05,"ÅRSTA","{300000,440016,500012,600006}"
35750,12060,"Stockholm","Stockholm",59.3,18.05,"ÅRSTA","{300000,440016,500000,500009,500012,600006,600015,600041}"
35751,12061,"Stockholm","Stockholm",59.3326,18.0649,"STOCKHOLM","{300000,440016,500000,600029}"
35752,12062,"Stockholm","Stockholm",59.3326,18.0649,"STOCKHOLM","{300000,440016,500000,600029}"
35753,12063,"Stockholm","Stockholm",59.3326,18.0649,"STOCKHOLM","{300000,440016,500000,600029}"
35754,12064,"Stockholm","Stockholm",59.3326,18.0649,"STOCKHOLM","{300000,440016,500000,600029}"
35755,12065,"Stockholm","Stockholm",59.3326,18.0649,"STOCKHOLM","{300000,440016,500000,600029}"
35756,12066,"Stockholm","Stockholm",59.3326,18.0649,"STOCKHOLM","{300000,400018,440016,500000,500002,600029,600039}"
35757,12067,"Stockholm","Stockholm",59.3326,18.0649,"STOCKHOLM","{300000,440016,500000,600029}"
35758,12068,"Stockholm","Stockholm",59.3326,18.0649,"STOCKHOLM","{300000,400018,440016,500000,600029}"
35759,12069,"Stockholm","Stockholm",59.3326,18.0649,"STOCKHOLM","{300000,400018,440016,500000,600029}"
35760,12070,"Stockholm","Stockholm",59.3326,18.0649,"STOCKHOLM","{300000,400018,440016,500000,600029}"
35761,12071,"Stockholm","Stockholm",,,"STOCKHOLM","{300000,440016,500000,600029}"
35762,12079,"Stockholm","Stockholm",59.3326,18.0649,"STOCKHOLM","{300000,440016,500000,600029}"
35763,12130,"Stockholm","Stockholm",59.3333,18.05,"ENSKEDEDALEN","{300000,440016,500012,600091}"
35764,12131,"Stockholm","Stockholm",59.3333,18.05,"ENSKEDEDALEN","{300000,440016,500002,500012,600042,600088,600089,600091}"
35765,12132,"Stockholm","Stockholm",59.3333,18.05,"ENSKEDEDALEN","{300000,440016,500012,600091,600007,600042}"
35766,12133,"Stockholm","Stockholm",59.3333,18.05,"ENSKEDEDALEN","{300000,440016,500002,500012,600088,600089,600091}"
35767,12134,"Stockholm","Stockholm",59.3333,18.05,"ENSKEDEDALEN","{300000,440016,500002,500012,600024,600088,600089,600091}"
35768,12135,"Stockholm","Stockholm",59.3333,18.05,"JOHANNESHOV","{300000,440016,500012,600007}"
35769,12136,"Stockholm","Stockholm",59.3333,18.05,"JOHANNESHOV","{300000,440016,500012,600007,600042}"
35770,12137,"Stockholm","Stockholm",59.3333,18.05,"JOHANNESHOV","{300000,440016,500000,500002,500012,600007,600042}"
35771,12138,"Stockholm","Stockholm",59.3333,18.05,"JOHANNESHOV","{300000,440016,500002,600039,600042}"
35772,12139,"Stockholm","Stockholm",59.3333,18.05,"JOHANNESHOV","{300000,440016,500002,600039,600042}"
35773,12140,"Stockholm","Stockholm",59.3333,18.05,"JOHANNESHOV","{300000,440016,500000,500012,600006,600007}"
35774,12143,"Stockholm","Stockholm",59.3333,18.05,"JOHANNESHOV","{300000,440016,500012,600006,600007}"
35775,12144,"Stockholm","Stockholm",59.3333,18.05,"JOHANNESHOV","{300000,440016,500012,600007}"
35776,12145,"Stockholm","Stockholm",59.3333,18.05,"JOHANNESHOV","{300000,440016,500000,500002,500012,600007,600029,600039,600042}"
35777,12146,"Stockholm","Stockholm",59.3333,18.05,"JOHANNESHOV","{300000,400018,440016,500002,600039,600042}"
35778,12147,"Stockholm","Stockholm",59.3333,18.05,"JOHANNESHOV","{300000,440016,500002,500012,600007}"
35779,12148,"Stockholm","Stockholm",59.3333,18.05,"JOHANNESHOV","{300000,440016,500012,500002,600091,600007,600042}"
35780,12149,"Stockholm","Stockholm",59.3333,18.05,"JOHANNESHOV","{300000,440016,500012,500002,600089,600039,600042}"
35781,12150,"Stockholm","Stockholm",59.3333,18.05,"JOHANNESHOV","{300000,400018,440016,500002,600039}"
35782,12151,"Stockholm","Stockholm",59.3333,18.05,"JOHANNESHOV","{300000,440016,500002,600089,600039}"
35783,12152,"Stockholm","Stockholm",59.3333,18.05,"JOHANNESHOV","{300000,400018,440016,500002,600039}"
35784,12153,"Stockholm","Stockholm",59.3333,18.05,"JOHANNESHOV","{300000,400018,440016,500002,600089,600039}"
35785,12154,"Stockholm","Stockholm",59.3333,18.05,"JOHANNESHOV","{300000,440016,500002,500012,600039,600088,600089,600091}"
35786,12155,"Stockholm","Stockholm",59.3333,18.05,"JOHANNESHOV","{300000,400018,440016,500002,600088,600089,600039}"
35787,12156,"Stockholm","Stockholm",59.3333,18.05,"JOHANNESHOV","{300000,440016,500002,600088,600089,600024}"
35788,12162,"Stockholm","Stockholm",59.3333,18.05,"JOHANNESHOV","{300000,440016,500012,600007,600043}"
35789,12163,"Stockholm","Stockholm",59.3333,18.05,"JOHANNESHOV","{300000,440016,500012,600006,600007,600043}"
35790,12177,"Stockholm","Stockholm",59.3333,18.05,"JOHANNESHOV","{300000,440016,500012,600007}"
35791,12231,"Stockholm","Stockholm",59.2833,18.0667,"ENSKEDE","{300000,440016,500012,600091}"
35792,12232,"Stockholm","Stockholm",59.2833,18.0667,"ENSKEDE","{300000,440016,500012,600091,600007,600043}"
35793,12233,"Stockholm","Stockholm",59.2833,18.0667,"ENSKEDE","{300000,440016,500010,500012,500002,600024,600081,600088,600091,600005}"
35794,12234,"Stockholm","Stockholm",59.2833,18.0667,"ENSKEDE","{300000,440016,500012,600091,600007}"
35795,12237,"Stockholm","Stockholm",59.2833,18.0667,"ENSKEDE","{300000,440016,500012,600008,600043,600014}"
35796,12238,"Stockholm","Stockholm",59.2833,18.0667,"ENSKEDE","{300000,440016,500010,500012,600082,600091}"
35797,12239,"Stockholm","Stockholm",59.2833,18.0667,"ENSKEDE","{300000,440016,500010,500012,600091,600092}"
35798,12240,"Stockholm","Stockholm",59.2833,18.0667,"ENSKEDE","{300000,440016,500010,500012,600091,600081,600092}"
35799,12241,"Stockholm","Stockholm",59.2833,18.0667,"ENSKEDE","{300000,440016,500012,600008}"
35800,12242,"Stockholm","Stockholm",59.2833,18.0667,"ENSKEDE","{300000,440016,500012,600087,600008}"
35801,12243,"Stockholm","Stockholm",59.2833,18.0667,"ENSKEDE","{300000,440016,500012,600008,600014,600015}"
35802,12244,"Stockholm","Stockholm",59.2833,18.0667,"ENSKEDE","{300000,440016,500010,600038,600091,600081,600092}"
35803,12245,"Stockholm","Stockholm",59.2833,18.0667,"ENSKEDE","{300000,440016,500010,600081,600092,600038}"
35804,12246,"Stockholm","Stockholm",59.2833,18.0667,"ENSKEDE","{300000,440016,500010,600008,600082,600081,600092}"
35805,12247,"Stockholm","Stockholm",59.2833,18.0667,"ENSKEDE","{300000,440016,500010,500012,600082,600008}"
35806,12248,"Stockholm","Stockholm",59.2833,18.0667,"ENSKEDE","{300000,440016,500010,500012,600008,600082,600091,600092}"
35807,12249,"Stockholm","Stockholm",,,"ENSKEDE","{300000,440016,500010,600081,600082,600087,600008,600038,600057,600058}"
35808,12260,"Stockholm","Stockholm",59.2833,18.0667,"ENSKEDE","{300000,440016,500010,600081,600092}"
35809,12262,"Stockholm","Stockholm",59.2833,18.0667,"ENSKEDE","{300000,440016,500012,600091}"
35810,12263,"Stockholm","Stockholm",59.2833,18.0667,"ENSKEDE","{300000,440016,500010,500012,600092,600082,600014,600008,600043,600091}"
35811,12264,"Stockholm","Stockholm",59.2833,18.0667,"ENSKEDE","{300000,440016,500010,500012,600082,600014,600008,600091}"
35812,12265,"Stockholm","Stockholm",59.2833,18.0667,"ENSKEDE","{300000,440016,500010,600082,600092}"
35813,12266,"Stockholm","Stockholm",59.2833,18.0667,"ENSKEDE","{300000,440016,500010,500012,600087,600082,600008}"
35814,12331,"Stockholm","Stockholm",,,"FARSTA","{300000,440016,500010}"
35815,12332,"Stockholm","Stockholm",59.25,18.0833,"FARSTA","{300000,440016,500010,600002,600058,600107}"
35816,12333,"Stockholm","Stockholm",59.25,18.0833,"FARSTA","{300000,440016,500010}"
35817,12334,"Stockholm","Stockholm",59.25,18.0833,"FARSTA","{300000,440016,500010,600038}"
35818,12341,"Stockholm","Stockholm",59.25,18.0833,"FARSTA","{300000,440016,500010,600108}"
35819,12342,"Stockholm","Stockholm",59.25,18.0833,"FARSTA","{300000,440016,500010,600108}"
35820,12343,"Stockholm","Stockholm",59.25,18.0833,"FARSTA","{300000,400006,440016,500010,600108,600107}"
35821,12344,"Stockholm","Stockholm",59.25,18.0833,"FARSTA","{300000,440016,500010,600107}"
35822,12346,"Stockholm","Stockholm",59.25,18.0833,"FARSTA","{300000,440016,500010,600002,600107}"
35823,12347,"Stockholm","Stockholm",59.25,18.0833,"FARSTA","{300000,440016,500010}"
35824,12348,"Stockholm","Stockholm",59.25,18.0833,"FARSTA","{300000,440016,500010,600058,600038,600107}"
35825,12349,"Stockholm","Stockholm",59.25,18.0833,"FARSTA","{300000,440016,500010,600058,600107}"
35826,12350,"Stockholm","Stockholm",,,"FARSTA","{300000,440016,500010,600108,600107}"
35827,12352,"Stockholm,Huddinge","Stockholm",59.25,18.0833,"FARSTA","{300000,400006,440016,500010,500012,600107,600058,600059,600002}"
35828,12353,"Stockholm","Stockholm",,,"FARSTA","{300000,400006,440016,500012,500010,600059,600057,600058}"
35829,12354,"Stockholm","Stockholm",,,"FARSTA","{300000,440016,500010,600057,600058,600038}"
35830,12355,"Stockholm","Stockholm",,,"FARSTA","{300000,440016,500010,600038}"
35831,12356,"Stockholm","Stockholm",59.25,18.0833,"FARSTA","{300000,440016,500010,600038}"
35832,12357,"Stockholm","Stockholm",59.25,18.0833,"FARSTA","{300000,440016,500010,600038}"
35833,12358,"Stockholm","Stockholm",59.25,18.0833,"FARSTA","{300000,440016,500010,600058,600081,600038}"
35834,12359,"Stockholm","Stockholm",59.25,18.0833,"FARSTA","{300000,440016,500010,600038}"
35835,12360,"Stockholm","Stockholm",59.25,18.0833,"FARSTA","{300000,440016,500010,600081,600038}"
35836,12361,"Stockholm","Stockholm",,,"FARSTA","{300000,440016,500010,600081,600038}"
35837,12363,"Huddinge,Stockholm","Stockholm",59.25,18.0833,"FARSTA","{300000,400006,440016,500002,500010,600005,600108,600026}"
35838,12371,"Stockholm","Stockholm",59.25,18.0833,"FARSTA","{300000,440016,500010,600108,600107}"
35839,12372,"Stockholm","Stockholm",59.25,18.0833,"FARSTA","{300000,440016,500010,600107}"
35840,12373,"Stockholm","Stockholm",59.25,18.0833,"FARSTA","{300000,400006,440016,500010,600107}"
35841,12430,"Stockholm","Stockholm",59.2968,18.0313,"BANDHAGEN","{300000,440016,500010,500012,600087}"
35842,12431,"Stockholm","Stockholm",59.2968,18.0313,"BANDHAGEN","{300000,440016,500012,600057,600087}"
35843,12432,"Stockholm","Stockholm",59.2968,18.0313,"BANDHAGEN","{300000,440016,500012,600008,600086,600057,600087}"
35844,12433,"Stockholm","Stockholm",59.2968,18.0313,"BANDHAGEN","{300000,440016,500012,600057,600086,600087}"
35845,12450,"Stockholm","Stockholm",59.2968,18.0313,"BANDHAGEN","{300000,440016,500012,600057}"
35846,12451,"Stockholm","Stockholm",59.2968,18.0313,"BANDHAGEN","{300000,440016,500012,600057,600059,600086}"
35847,12452,"Stockholm","Stockholm",59.2968,18.0313,"BANDHAGEN","{300000,440016,500012,600057}"
35848,12453,"Stockholm","Stockholm",59.2968,18.0313,"BANDHAGEN","{300000,440016,500012,600057}"
35849,12454,"Stockholm","Stockholm",59.2968,18.0313,"BANDHAGEN","{300000,440016,500012,600057}"
35850,12455,"Stockholm","Stockholm",59.2968,18.0313,"BANDHAGEN","{300000,440016,500012,600057,600087}"
35851,12456,"Stockholm","Stockholm",59.2968,18.0313,"BANDHAGEN","{300000,440016,500012,600057,600087}"
35852,12457,"Stockholm","Stockholm",59.2968,18.0313,"BANDHAGEN","{300000,440016,500012,600057,600087}"
35853,12458,"Stockholm","Stockholm",59.2968,18.0313,"BANDHAGEN","{300000,440016,500012,600057,600087}"
35854,12459,"Stockholm","Stockholm",59.2968,18.0313,"BANDHAGEN","{300000,440016,500010,500012,600081,600087,600008,600057,600058,600059}"
35855,12460,"Stockholm","Stockholm",59.2968,18.0313,"BANDHAGEN","{300000,440016,500012,600058,600059}"
35856,12461,"Stockholm","Stockholm",59.2968,18.0313,"BANDHAGEN","{300000,440016,500012,600059}"
35857,12462,"Stockholm","Stockholm",59.2968,18.0313,"BANDHAGEN","{300000,440016,500012,600057,600059}"
35858,12463,"Stockholm","Stockholm",59.2968,18.0313,"BANDHAGEN","{300000,400006,440016,500012,600059}"
35859,12464,"Stockholm","Stockholm",59.2968,18.0313,"BANDHAGEN","{300000,440016,500012,600059}"
35860,12465,"Stockholm","Stockholm",59.2968,18.0313,"BANDHAGEN","{300000,440016,500012,600059}"
35861,12466,"Stockholm","Stockholm",59.2968,18.0313,"BANDHAGEN","{300000,440016,500012,600059,600085}"
35862,12467,"Stockholm","Stockholm",59.2968,18.0313,"BANDHAGEN","{300000,440016,500012,600059}"
35863,12470,"Stockholm","Stockholm",59.2968,18.0313,"BANDHAGEN","{300000,440016,500012,600086,600059,600057,600085}"
35864,12471,"Stockholm","Stockholm",59.2968,18.0313,"BANDHAGEN","{300000,440016,500012,600085}"
35865,12472,"Stockholm","Stockholm",59.2968,18.0313,"BANDHAGEN","{300000,440016,500011,500012,600085}"
35866,12473,"Stockholm","Stockholm",59.2968,18.0313,"BANDHAGEN","{300000,440016,500012,600059,600085}"
35867,12474,"Stockholm","Stockholm",59.2968,18.0313,"BANDHAGEN","{300000,440016,500012,600059,600085}"
35868,12475,"Stockholm","Stockholm",59.2968,18.0313,"BANDHAGEN","{300000,440016,500012,600059,600085}"
35869,12476,"Stockholm","Stockholm",59.2968,18.0313,"BANDHAGEN","{300000,440016,500012,600059,600085}"
35870,12530,"Stockholm","Stockholm",59.2793,18.0111,"ÄLVSJÖ","{300000,440016,500011,500012,600085,600009,600080,600083,600084}"
35871,12531,"Stockholm","Stockholm",,,"ÄLVSJÖ","{300000,440016,500011,600009}"
35872,12532,"Stockholm","Stockholm",,,"ÄLVSJÖ","{300000,440016,500009,500011,600084,600060,600009}"
35873,12533,"Stockholm","Stockholm",59.2793,18.0111,"ÄLVSJÖ","{300000,440016,500009,500011,600060,600084}"
35874,12534,"Stockholm","Stockholm",59.2793,18.0111,"ÄLVSJÖ","{300000,440016,500011,600084,600009}"
35875,12535,"Stockholm","Stockholm",59.2793,18.0111,"ÄLVSJÖ","{300000,440016,500011,500012,600080,600004}"
35876,12540,"Stockholm","Stockholm",59.2793,18.0111,"ÄLVSJÖ","{300000,440016,500012,600086,600008}"
35877,12541,"Stockholm","Stockholm",59.2793,18.0111,"ÄLVSJÖ","{300000,440016,500012,600057,600086}"
35878,12542,"Stockholm","Stockholm",59.2793,18.0111,"ÄLVSJÖ","{300000,440016,500012,600080,600085,600086}"
35879,12543,"Stockholm","Stockholm",59.2793,18.0111,"ÄLVSJÖ","{300000,440016,500012,600059,600080,600085,600086,600057}"
35880,12544,"Stockholm","Stockholm",59.2793,18.0111,"ÄLVSJÖ","{300000,440016,500011,600080,600004,600009}"
35881,12545,"Stockholm","Stockholm",59.2793,18.0111,"ÄLVSJÖ","{300000,440016,500011,600009}"
35882,12546,"Stockholm","Stockholm",59.2793,18.0111,"ÄLVSJÖ","{300000,440016,500011,500012,600004,600015}"
35883,12551,"Stockholm","Stockholm",59.2793,18.0111,"ÄLVSJÖ","{300000,440016,500011,500012,600083,600085}"
35884,12552,"Stockholm","Stockholm",59.2793,18.0111,"ÄLVSJÖ","{300000,400006,440016,500011,600083,600003}"
35885,12553,"Stockholm","Stockholm",59.2793,18.0111,"ÄLVSJÖ","{300000,400006,440016,500011,600003}"
35886,12554,"Stockholm","Stockholm",59.2793,18.0111,"ÄLVSJÖ","{300000,400006,440016,500011,500009,600084,600060,600003,600083}"
35887,12555,"Stockholm","Stockholm",59.2793,18.0111,"ÄLVSJÖ","{300000,440016,500009,500011,600003}"
35888,12556,"Stockholm","Stockholm",59.2793,18.0111,"ÄLVSJÖ","{300000,440016,500011,600083,600084,600003}"
35889,12557,"Stockholm","Stockholm",59.2793,18.0111,"ÄLVSJÖ","{300000,440016,500011,600083,600084,600003}"
35890,12558,"Stockholm","Stockholm",59.2793,18.0111,"ÄLVSJÖ","{300000,440016,500009,500011,600083,600060,600084}"
35891,12559,"Stockholm","Stockholm",59.2793,18.0111,"ÄLVSJÖ","{300000,440016,500009,500011,600084,600060,600003}"
35892,12560,"Stockholm","Stockholm",,,"ÄLVSJÖ","{300000,440016,500009,500011,600084,600060,600003}"
35893,12570,"Stockholm","Stockholm",,,"ÄLVSJÖ","{300000,440016,500011,500012,600080,600086}"
35894,12571,"Stockholm","Stockholm",59.2793,18.0111,"ÄLVSJÖ","{300000,440016,500011,500012,600008,600015,600080,600086,600004}"
35895,12572,"Stockholm","Stockholm",59.2793,18.0111,"ÄLVSJÖ","{300000,440016,500012,600015}"
35896,12573,"Stockholm","Stockholm",59.2793,18.0111,"ÄLVSJÖ","{300000,440016,500011,500012,600015}"
35897,12574,"Stockholm","Stockholm",59.2793,18.0111,"ÄLVSJÖ","{300000,440016,500012,600008,600015}"
35898,12626,"Stockholm","Stockholm",0,0,"HÄGERSTEN","{300000,440016,500009,600063,600011,600104}"
35899,12628,"Stockholm","Stockholm",0,0,"HÄGERSTEN","{300000,440016,500009,600011,600104}"
35900,12629,"Stockholm","Stockholm",0,0,"HÄGERSTEN","{300000,440016,500009,600011,600104}"
35901,12630,"Stockholm","Stockholm",59.3059,17.9872,"HÄGERSTEN","{300000,440016,500011,500009,500012,600015,600009,600011,600004}"
35902,12631,"Stockholm","Stockholm",59.3059,17.9872,"HÄGERSTEN","{300000,440016,500009,600011}"
35903,12632,"Stockholm","Stockholm",59.3059,17.9872,"HÄGERSTEN","{300000,440016,500009,600011,600104,600041}"
35904,12633,"Stockholm","Stockholm",59.3059,17.9872,"HÄGERSTEN","{300000,440016,500009,600104,600041}"
35905,12634,"Stockholm","Stockholm",59.3059,17.9872,"HÄGERSTEN","{300000,440016,500009,600104}"
35906,12635,"Stockholm","Stockholm",59.3059,17.9872,"HÄGERSTEN","{300000,440016,500009,600011,600104}"
35907,12636,"Stockholm","Stockholm",59.3059,17.9872,"HÄGERSTEN","{300000,440016,500009,600104}"
35908,12637,"Stockholm","Stockholm",59.3059,17.9872,"HÄGERSTEN","{300000,440016,500009,600011,600104}"
35909,12638,"Stockholm","Stockholm",59.3059,17.9872,"HÄGERSTEN","{300000,440016,500011,500009,600063,600009,600011,600104}"
35910,12639,"Stockholm","Stockholm",59.3059,17.9872,"HÄGERSTEN","{300000,440016,500011,500009,600004,600009,600011,600015}"
35911,12640,"Stockholm","Stockholm",59.3059,17.9872,"HÄGERSTEN","{300000,440016,500011,600009}"
35912,12641,"Stockholm","Stockholm",59.3059,17.9872,"HÄGERSTEN","{300000,440016,500011,600084,600009}"
35913,12642,"Stockholm","Stockholm",59.3059,17.9872,"HÄGERSTEN","{300000,440016,500009,500011,600011,600009,600063}"
35914,12647,"Stockholm","Stockholm",59.3059,17.9872,"HÄGERSTEN","{300000,440016,500009,600063,600104,600101}"
35915,12648,"Stockholm","Stockholm",59.3059,17.9872,"HÄGERSTEN","{300000,440016,500009,600104,600031}"
35916,12649,"Stockholm","Stockholm",59.3059,17.9872,"HÄGERSTEN","{300000,440016,500009,600104,600031,600041}"
35917,12650,"Stockholm","Stockholm",59.3059,17.9872,"HÄGERSTEN","{300000,440016,500009,600031,600041}"
35918,12651,"Stockholm","Stockholm",59.3059,17.9872,"HÄGERSTEN","{300000,440016,500009,600031}"
35919,12652,"Stockholm","Stockholm",59.3059,17.9872,"HÄGERSTEN","{300000,440016,500009,600104,600031,600101}"
35920,12653,"Stockholm","Stockholm",59.3059,17.9872,"HÄGERSTEN","{300000,440016,500009,600063,600104,600031,600101}"
35921,12654,"Stockholm","Stockholm",,,"HÄGERSTEN","{300000,440016,500009,600031,600101}"
35922,12655,"Stockholm","Stockholm",,,"HÄGERSTEN","{300000,440016,500009,600031}"
35923,12675,"Stockholm","Stockholm",59.3326,18.0649,"STOCKHOLM","{300000,440016,500009,600011}"
35924,12677,"Stockholm","Stockholm",0,0,"HÄGERSTEN","{300000,440016,500011,600009}"
35925,12678,"Stockholm","Stockholm",59.3059,17.9872,"HÄGERSTEN","{300000,440016,500011,600009}"
35926,12679,"Stockholm","Stockholm",59.3059,17.9872,"HÄGERSTEN","{300000,440016,500009,500011,600009,600011}"
35927,12730,"Stockholm","Stockholm",59.2755,17.902,"SKÄRHOLMEN","{300000,440016,500003,600000,600028}"
35928,12731,"Stockholm","Stockholm",59.2755,17.902,"SKÄRHOLMEN","{300000,400005,440016,500003,600000,600028,600035}"
35929,12732,"Stockholm","Stockholm",59.2755,17.902,"SKÄRHOLMEN","{300000,400005,440016,500009,500003,600061,600000}"
35930,12733,"Stockholm","Stockholm",59.2755,17.902,"SKÄRHOLMEN","{300000,440016,500003,600000}"
35931,12734,"Stockholm","Stockholm",59.2755,17.902,"SKÄRHOLMEN","{300000,440016,500003,600000}"
35932,12735,"Stockholm","Stockholm",59.2755,17.902,"SKÄRHOLMEN","{300000,440016,400006,500003,600028,600060,600061,600000}"
35933,12736,"Stockholm","Stockholm",59.2755,17.902,"SKÄRHOLMEN","{300000,440016,500003,600028}"
35934,12737,"Stockholm","Stockholm",59.2755,17.902,"SKÄRHOLMEN","{300000,440016,500003,600000,600028}"
35935,12738,"Stockholm","Stockholm",59.2755,17.902,"SKÄRHOLMEN","{300000,440016,500003,600028}"
35936,12739,"Stockholm","Stockholm",59.2755,17.902,"SKÄRHOLMEN","{300000,400006,440016,500003,600028}"
35937,12740,"Stockholm","Stockholm",59.2755,17.902,"SKÄRHOLMEN","{300000,440016,500003,600035}"
35938,12741,"Stockholm","Stockholm",59.2755,17.902,"SKÄRHOLMEN","{300000,400005,440016,500003,600035}"
35939,12742,"Stockholm","Stockholm",59.2755,17.902,"SKÄRHOLMEN","{300000,400006,440016,500003,600035}"
35940,12743,"Stockholm","Stockholm",59.2755,17.902,"SKÄRHOLMEN","{300000,400006,440016,500003,600035}"
35941,12744,"Stockholm","Stockholm",59.2755,17.902,"SKÄRHOLMEN","{300000,440016,500003,600035}"
35942,12745,"Stockholm","Stockholm",59.2755,17.902,"SKÄRHOLMEN","{300000,440016,500003,600035}"
35943,12746,"Stockholm","Stockholm",59.2755,17.902,"SKÄRHOLMEN","{300000,440016,500003,600035}"
35944,12747,"Stockholm","Stockholm",59.2755,17.902,"SKÄRHOLMEN","{300000,440016,500003,600035}"
35945,12748,"Stockholm","Stockholm",59.2755,17.902,"SKÄRHOLMEN","{300000,400006,440016,500003}"
35946,12749,"Stockholm","Stockholm",59.2755,17.902,"SKÄRHOLMEN","{300000,400006,440016,500003,600035}"
35947,12751,"Stockholm","Stockholm",,,"SKÄRHOLMEN","{300000,440016,500003}"
35948,12760,"Stockholm","Stockholm",,,"SKÄRHOLMEN","{300000,440016,500003,600000}"
35949,12761,"Stockholm","Stockholm",59.2755,17.902,"SKÄRHOLMEN","{300000,440016,500003,500009,600061,600000}"
35950,12830,"Stockholm","Stockholm",59.2667,18.1167,"SKARPNÄCK","{300000,400018,440016,500002,500010,600027,600066,600005,600024,600026}"
35951,12831,"Stockholm","Stockholm",59.2667,18.1167,"SKARPNÄCK","{300000,400018,440016,500002,600024,600027,600036}"
35952,12832,"Stockholm","Stockholm",59.2667,18.1167,"SKARPNÄCK","{300000,440016,500002,600024,600036}"
35953,12833,"Stockholm","Stockholm",59.2667,18.1167,"SKARPNÄCK","{300000,440016,500002,600024}"
35954,12834,"Stockholm","Stockholm",59.2667,18.1167,"SKARPNÄCK","{300000,440016,500002,500010,600005,600024}"
35955,12835,"Stockholm","Stockholm",59.2667,18.1167,"SKARPNÄCK","{300000,440016,500002,600024}"
35956,12836,"Stockholm","Stockholm",59.2667,18.1167,"SKARPNÄCK","{300000,440016,500002,600024,600036}"
35957,12838,"Stockholm","Stockholm",59.2667,18.1167,"SKARPNÄCK","{300000,440016,500012,500002,600024,600036,600088,600089,600091}"
35958,12839,"Stockholm","Stockholm",59.2667,18.1167,"SKARPNÄCK","{300000,440016,500002,500010,600005,600024,600036}"
35959,12841,"Stockholm","Stockholm",59.26,18.1167,"BAGARMOSSEN","{300000,440016,500002,600089,600024,600036}"
35960,12842,"Stockholm","Stockholm",59.26,18.1167,"BAGARMOSSEN","{300000,440016,500002,600024,600036}"
35961,12843,"Stockholm","Stockholm",59.26,18.1167,"BAGARMOSSEN","{300000,440016,500002,600024,600036}"
35962,12844,"Stockholm","Stockholm",59.26,18.1167,"BAGARMOSSEN","{300000,440016,500002,600024,600036}"
35963,12845,"Stockholm","Stockholm",59.26,18.1167,"BAGARMOSSEN","{300000,440016,500002,600036}"
35964,12846,"Stockholm","Stockholm",59.26,18.1167,"BAGARMOSSEN","{300000,440016,500002,600036}"
35965,12847,"Stockholm","Stockholm",59.26,18.1167,"BAGARMOSSEN","{300000,400018,440016,500002,600089,600036}"
35966,12848,"Stockholm","Stockholm",59.26,18.1167,"BAGARMOSSEN","{300000,400018,440016,500002,600036}"
35967,12862,"Stockholm","Stockholm",59.25,18.1167,"SKÖNDAL","{300000,440016,500010,500012,500002,600024,600081,600091,600092,600005}"
35968,12863,"Stockholm","Stockholm",,,"SKÖNDAL","{300000,440016,500002,500010,600024,600005,600026}"
35969,12864,"Stockholm","Stockholm",59.25,18.1167,"SKÖNDAL","{300000,440016,500010,600108,600005}"
35970,12865,"Stockholm","Stockholm",59.25,18.1167,"SKÖNDAL","{300000,440016,500010,500002,600026,600027,600108,600005,600024}"
35971,12866,"Stockholm","Stockholm",59.25,18.1167,"SKÖNDAL","{300000,440016,500010,600005}"
35972,12867,"Stockholm","Stockholm",59.25,18.1167,"SKÖNDAL","{300000,440016,500010,600005}"
35973,12868,"Stockholm","Stockholm",59.25,18.1167,"SKÖNDAL","{300000,440016,500010,600005}"
35974,12869,"Stockholm","Stockholm",59.25,18.1167,"SKÖNDAL","{300000,440016,500010,600038,600081,600108,600005}"
35975,12930,"Stockholm","Stockholm",59.3059,17.9872,"HÄGERSTEN","{300000,440016,500009,600063,600011}"
35976,12931,"Stockholm","Stockholm",59.3059,17.9872,"HÄGERSTEN","{300000,440016,500009,600063}"
35977,12932,"Stockholm","Stockholm",59.3059,17.9872,"HÄGERSTEN","{300000,440016,500009,600063}"
35978,12933,"Stockholm","Stockholm",59.3059,17.9872,"HÄGERSTEN","{300000,440016,500009,600063}"
35979,12934,"Stockholm","Stockholm",59.3059,17.9872,"HÄGERSTEN","{300000,440016,500009,600063,600101}"
35980,12935,"Stockholm","Stockholm",59.3059,17.9872,"HÄGERSTEN","{300000,440016,500009,600062,600063,600101}"
35981,12936,"Stockholm","Stockholm",59.3059,17.9872,"HÄGERSTEN","{300000,440016,500009,600031,600037,600101}"
35982,12937,"Stockholm","Stockholm",59.3059,17.9872,"HÄGERSTEN","{300000,440016,500009,500005,600032,600037,600101}"
35983,12938,"Stockholm","Stockholm",59.3059,17.9872,"HÄGERSTEN","{300000,440016,500009,600062,600101}"
35984,12939,"Stockholm","Stockholm",59.3059,17.9872,"HÄGERSTEN","{300000,400005,440016,500005,500009,600101,600032}"
35985,12940,"Stockholm","Stockholm",59.3059,17.9872,"HÄGERSTEN","{300000,400005,440016,500003,500009,600000,600101,600061}"
35986,12941,"Stockholm","Stockholm",59.3059,17.9872,"HÄGERSTEN","{300000,440016,500009,600061,600101}"
35987,12942,"Stockholm","Stockholm",59.3059,17.9872,"HÄGERSTEN","{300000,440016,500003,500009,600000,600101,600061}"
35988,12943,"Stockholm","Stockholm",59.3059,17.9872,"HÄGERSTEN","{300000,440016,500009,600061,600062,600101}"
35989,12944,"Stockholm","Stockholm",59.3059,17.9872,"HÄGERSTEN","{300000,400006,440016,500003,500009,600101,600060,600061,600062,600000}"
35990,12945,"Stockholm","Stockholm",59.3059,17.9872,"HÄGERSTEN","{300000,440016,500009,600062,600101}"
35991,12946,"Stockholm","Stockholm",59.3059,17.9872,"HÄGERSTEN","{300000,440016,500009,600060,600061,600062}"
35992,12947,"Stockholm","Stockholm",59.3059,17.9872,"HÄGERSTEN","{300000,440016,500009,600062}"
35993,12948,"Stockholm","Stockholm",59.3059,17.9872,"HÄGERSTEN","{300000,440016,500009,600062,600063,600101}"
35994,12949,"Stockholm","Stockholm",59.3059,17.9872,"HÄGERSTEN","{300000,440016,500009,500011,600009,600060,600062,600063}"
35995,12950,"Stockholm","Stockholm",59.3059,17.9872,"HÄGERSTEN","{300000,440016,500009,500011,600060,600084}"
35996,12951,"Stockholm","Stockholm",59.3059,17.9872,"HÄGERSTEN","{300000,440016,500009,600060}"
35997,12952,"Stockholm","Stockholm",59.3059,17.9872,"HÄGERSTEN","{300000,440016,500009,600060}"
35998,12953,"Stockholm","Stockholm",59.3059,17.9872,"HÄGERSTEN","{300000,440016,500009,600060}"
35999,12954,"Stockholm","Stockholm",59.3059,17.9872,"HÄGERSTEN","{300000,440016,500009,600060}"
36000,12955,"Stockholm","Stockholm",59.3059,17.9872,"HÄGERSTEN","{300000,400006,440016,500011,500009,600060,600003}"
36001,12956,"Stockholm","Stockholm",0,0,"HÄGERSTEN","{300000,440016,500009,600060}"
36002,12957,"Stockholm","Stockholm",,,"HÄGERSTEN","{300000,400006,440016,500003,500009,600060}"
36003,13025,"Österåker","Stockholm",59.4675,18.7494,"INGMARSÖ","{300000,400002,400003}"
36004,13033,"Värmdö","Stockholm",59.4,18.6333,"GÄLLNÖBY","{300000,400002,400003}"
36005,13034,"Värmdö","Stockholm",59.4481,18.69,"SKÄLVIK","{300000,400002,400003}"
36006,13036,"Värmdö","Stockholm",59.1833,18.6833,"NÄMDÖ","{300000,400003,400009}"
36007,13038,"Värmdö","Stockholm",59.3196,18.7213,"RUNMARÖ","{300000,400003}"
36008,13039,"Värmdö","Stockholm",59.2833,18.9167,"SANDHAMN","{300000,400003}"
36009,13041,"Värmdö","Stockholm",,,"SOLLENKROKA Ö","{300000,400003}"
36010,13042,"Värmdö","Stockholm",59.3499,18.7582,"STAVSUDDA","{300000,400002,400003}"
36011,13043,"Värmdö","Stockholm",59.3997,18.8331,"MÖJA","{300000,400002,400003,400023}"
36012,13044,"Värmdö","Stockholm",,,"HARÖ","{300000,400003}"
36013,13045,"Haninge","Stockholm",,,"GRÄNÖ","{300000,400003,400009,400010}"
36014,13055,"Haninge","Stockholm",59.0544,18.4283,"ORNÖ","{300000,400003,400009}"
36015,13056,"Haninge","Stockholm",58.9667,18.3331,"UTÖ","{300000,400009}"
36016,13130,"Nacka","Stockholm",59.3105,18.1637,"NACKA","{300000,400018,440016,500000,600029}"
36017,13131,"Nacka","Stockholm",59.3105,18.1637,"NACKA","{300000,400018,440016,500004,600106}"
36018,13132,"Nacka","Stockholm",59.3105,18.1637,"NACKA","{300000,400018,440016,500000,600029}"
36019,13133,"Nacka","Stockholm",59.3105,18.1637,"NACKA","{300000,400018,440016,500002,600089,600039}"
36020,13134,"Nacka","Stockholm",59.3105,18.1637,"NACKA","{300000,400018,440016,500002,600039}"
36021,13135,"Nacka","Stockholm",59.3105,18.1637,"NACKA","{300000,400018,440016,500000,600029}"
36022,13136,"Nacka","Stockholm",59.3105,18.1637,"NACKA","{300000,400018}"
36023,13137,"Nacka","Stockholm",59.3105,18.1637,"NACKA","{300000,400018}"
36024,13138,"Nacka","Stockholm",59.3105,18.1637,"NACKA","{300000,400018}"
36025,13139,"Nacka","Stockholm",59.3105,18.1637,"NACKA","{300000,400018}"
36026,13140,"Nacka","Stockholm",59.3105,18.1637,"NACKA","{300000,400018}"
36027,13141,"Nacka","Stockholm",59.3105,18.1637,"NACKA","{300000,400018}"
36028,13142,"Nacka","Stockholm",59.3105,18.1637,"NACKA","{300000,400018}"
36029,13144,"Nacka","Stockholm",59.3105,18.1637,"NACKA","{300000,400018}"
36030,13145,"Nacka","Stockholm",59.3105,18.1637,"NACKA","{300000,400018}"
36031,13146,"Nacka","Stockholm",59.3105,18.1637,"NACKA","{300000,400018}"
36032,13147,"Nacka","Stockholm",59.3105,18.1637,"NACKA","{300000,400018,400021}"
36033,13148,"Nacka","Stockholm",59.3105,18.1637,"NACKA","{300000,400018}"
36034,13149,"Nacka","Stockholm",59.3105,18.1637,"NACKA","{300000,400018,400021}"
36035,13150,"Nacka","Stockholm",59.3,18.2,"SALTSJÖ-DUVNÄS","{300000,400018}"
36036,13152,"Nacka","Stockholm",59.3134,18.1481,"NACKA STRAND","{300000,400018,440016,500004,600106}"
36037,13153,"Nacka","Stockholm",0,0,"NACKA","{300000,400018}"
36038,13154,"Nacka","Stockholm",0,0,"NACKA","{300000,400018,440016,500000,500002,600029,600039}"
36039,13155,"Stockholm,Nacka","Stockholm",59.3326,18.0649,"NACKA","{300000,400018,440016,500000,600029}"
36040,13159,"Nacka","Stockholm",59.3105,18.1637,"NACKA","{300000,400018}"
36041,13160,"Nacka","Stockholm",59.3105,18.1637,"NACKA","{300000,400018}"
36042,13161,"Nacka","Stockholm",59.3105,18.1637,"NACKA","{300000,400018}"
36043,13165,"Nacka","Stockholm",59.3105,18.1637,"NACKA","{300000,400018,440016,500002,600039}"
36044,13171,"Nacka","Stockholm",59.3105,18.1637,"NACKA","{300000,400018,440016,500000,600029}"
36045,13172,"Nacka","Stockholm",59.3105,18.1637,"NACKA","{300000,400018,440016,500004,600106}"
36046,13230,"Nacka","Stockholm",59.3173,18.255,"SALTSJÖ-BOO","{300000,400018}"
36047,13231,"Nacka","Stockholm",59.3173,18.255,"SALTSJÖ-BOO","{300000,400018}"
36048,13232,"Nacka","Stockholm",59.3173,18.255,"SALTSJÖ-BOO","{300000,400018}"
36049,13233,"Nacka","Stockholm",59.3173,18.255,"SALTSJÖ-BOO","{300000,400018}"
36050,13234,"Nacka","Stockholm",59.3173,18.255,"SALTSJÖ-BOO","{300000,400018}"
36051,13235,"Nacka","Stockholm",59.3173,18.255,"SALTSJÖ-BOO","{300000,400018}"
36052,13236,"Värmdö,Nacka","Stockholm",59.3173,18.255,"SALTSJÖ-BOO","{300000,400018,400003}"
36053,13237,"Nacka","Stockholm",59.3173,18.255,"SALTSJÖ-BOO","{300000,400018,400003,400021}"
36054,13238,"Nacka","Stockholm",59.3173,18.255,"SALTSJÖ-BOO","{300000,400018,400021}"
36055,13239,"Nacka","Stockholm",59.3173,18.255,"SALTSJÖ-BOO","{300000,400018,400021}"
36056,13240,"Nacka","Stockholm",59.3173,18.255,"SALTSJÖ-BOO","{300000,400018}"
36057,13241,"Nacka","Stockholm",59.3173,18.255,"SALTSJÖ-BOO","{300000,400018}"
36058,13242,"Nacka","Stockholm",59.3173,18.255,"SALTSJÖ-BOO","{300000,400018}"
36059,13243,"Nacka","Stockholm",59.3173,18.255,"SALTSJÖ-BOO","{300000,400018}"
36060,13244,"Nacka","Stockholm",59.3173,18.255,"SALTSJÖ-BOO","{300000,400018}"
36061,13245,"Nacka","Stockholm",59.3173,18.255,"SALTSJÖ-BOO","{300000,400018}"
36062,13246,"Nacka","Stockholm",59.3173,18.255,"SALTSJÖ-BOO","{300000,400018}"
36063,13247,"Nacka","Stockholm",59.3173,18.255,"SALTSJÖ-BOO","{300000,400018,400003}"
36064,13248,"Nacka","Stockholm",59.3173,18.255,"SALTSJÖ-BOO","{300000,400018}"
36065,13249,"Nacka","Stockholm",,,"SALTSJÖ-BOO","{300000,400018}"
36066,13252,"Nacka","Stockholm",59.3173,18.255,"SALTSJÖ-BOO","{300000,400018}"
36067,13331,"Nacka","Stockholm",59.2833,18.3,"SALTSJÖBADEN","{300000,400018}"
36068,13332,"Nacka","Stockholm",59.2833,18.3,"SALTSJÖBADEN","{300000,400018}"
36069,13333,"Nacka","Stockholm",59.2833,18.3,"SALTSJÖBADEN","{300000,400018,400003}"
36070,13334,"Nacka","Stockholm",59.2833,18.3,"SALTSJÖBADEN","{300000,400018}"
36071,13335,"Nacka","Stockholm",59.2833,18.3,"SALTSJÖBADEN","{300000,400018,400003}"
36072,13336,"Nacka","Stockholm",59.2833,18.3,"SALTSJÖBADEN","{300000,400018,400010}"
36073,13337,"Nacka","Stockholm",59.2833,18.3,"SALTSJÖBADEN","{300000,400018,400003,400010}"
36074,13338,"Nacka","Stockholm",59.2833,18.3,"SALTSJÖBADEN","{300000,400018}"
36075,13339,"Nacka","Stockholm",59.2833,18.3,"SALTSJÖBADEN","{300000,400018}"
36076,13341,"Nacka","Stockholm",59.2833,18.3,"SALTSJÖBADEN","{300000,400018}"
36077,13342,"Nacka","Stockholm",59.2833,18.3,"SALTSJÖBADEN","{300000,400018}"
36078,13343,"Nacka","Stockholm",59.2833,18.3,"SALTSJÖBADEN","{300000,400018}"
36079,13344,"Nacka","Stockholm",59.2833,18.3,"SALTSJÖBADEN","{300000,400018}"
36080,13348,"Nacka","Stockholm",59.2833,18.3,"SALTSJÖBADEN","{300000,400018,400010}"
36081,13349,"Nacka","Stockholm",59.2833,18.3,"SALTSJÖBADEN","{300000,400018}"
36082,13430,"Värmdö","Stockholm",59.3268,18.3898,"GUSTAVSBERG","{300000,400003}"
36083,13431,"Värmdö","Stockholm",59.3268,18.3898,"GUSTAVSBERG","{300000,400018,400003}"
36084,13432,"Värmdö,Nacka","Stockholm",59.3268,18.3898,"GUSTAVSBERG","{300000,400018,400003,400022}"
36085,13433,"Värmdö","Stockholm",59.3268,18.3898,"GUSTAVSBERG","{300000,400018,400003}"
36086,13434,"Värmdö","Stockholm",59.3268,18.3898,"GUSTAVSBERG","{300000,400003}"
36087,13435,"Värmdö","Stockholm",59.3268,18.3898,"GUSTAVSBERG","{300000,400003}"
36088,13436,"Värmdö","Stockholm",59.3268,18.3898,"GUSTAVSBERG","{300000,400003}"
36089,13437,"Värmdö","Stockholm",59.3268,18.3898,"GUSTAVSBERG","{300000,400003}"
36090,13438,"Värmdö","Stockholm",59.3268,18.3898,"GUSTAVSBERG","{300000,400003}"
36091,13439,"Värmdö","Stockholm",59.3268,18.3898,"GUSTAVSBERG","{300000,400003}"
36092,13440,"Värmdö","Stockholm",59.3268,18.3898,"GUSTAVSBERG","{300000,400018,400003}"
36093,13441,"Värmdö","Stockholm",59.3268,18.3898,"GUSTAVSBERG","{300000,400003}"
36094,13442,"Värmdö","Stockholm",59.3268,18.3898,"GUSTAVSBERG","{300000,400003}"
36095,13443,"Värmdö","Stockholm",59.3268,18.3898,"GUSTAVSBERG","{300000,400003}"
36096,13444,"Värmdö","Stockholm",59.3268,18.3898,"GUSTAVSBERG","{300000,400003}"
36097,13450,"Värmdö","Stockholm",,,"GUSTAVSBERG","{300000,400003}"
36098,13460,"Värmdö","Stockholm",59.3268,18.3898,"INGARÖ","{300000,400003}"
36099,13461,"Värmdö","Stockholm",59.3268,18.3898,"INGARÖ","{300000,400018,400003}"
36100,13462,"Värmdö","Stockholm",59.3268,18.3898,"INGARÖ","{300000,400003}"
36101,13463,"Värmdö","Stockholm",59.3268,18.3898,"INGARÖ","{300000,400018,400003,400010}"
36102,13464,"Värmdö","Stockholm",59.3268,18.3898,"INGARÖ","{300000,400003}"
36103,13465,"Värmdö","Stockholm",59.3268,18.3898,"INGARÖ","{300000,400003}"
36104,13466,"Värmdö","Stockholm",59.3268,18.3898,"INGARÖ","{300000,400003}"
36105,13467,"Värmdö","Stockholm",59.3268,18.3898,"INGARÖ","{300000,400003,400009}"
36106,13469,"Värmdö","Stockholm",59.3268,18.3898,"INGARÖ","{300000,400003,400010}"
36107,13530,"Tyresö","Stockholm",59.2333,18.3,"TYRESÖ","{300000,400010}"
36108,13531,"Tyresö","Stockholm",,,"TYRESÖ","{300000,400010}"
36109,13533,"Tyresö","Stockholm",59.2333,18.3,"TYRESÖ","{300000,400010}"
36110,13534,"Tyresö","Stockholm",59.2333,18.3,"TYRESÖ","{300000,400010}"
36111,13535,"Tyresö","Stockholm",59.2333,18.3,"TYRESÖ","{300000,400010}"
36112,13536,"Tyresö","Stockholm",59.2333,18.3,"TYRESÖ","{300000,400010}"
36113,13537,"Tyresö","Stockholm",59.2333,18.3,"TYRESÖ","{300000,400010}"
36114,13538,"Tyresö","Stockholm",,,"TYRESÖ","{300000,400010}"
36115,13539,"Tyresö","Stockholm",59.2333,18.3,"TYRESÖ","{300000,400018,400010}"
36116,13540,"Tyresö","Stockholm",59.2333,18.3,"TYRESÖ","{300000,400010}"
36117,13541,"Tyresö","Stockholm",59.2333,18.3,"TYRESÖ","{300000,400010}"
36118,13542,"Tyresö","Stockholm",59.2333,18.3,"TYRESÖ","{300000,400010}"
36119,13543,"Tyresö","Stockholm",59.2333,18.3,"TYRESÖ","{300000,400010}"
36120,13544,"Tyresö","Stockholm",59.2333,18.3,"TYRESÖ","{300000,400010}"
36121,13545,"Tyresö","Stockholm",59.2333,18.3,"TYRESÖ","{300000,400010}"
36122,13546,"Tyresö","Stockholm",59.2333,18.3,"TYRESÖ","{300000,400010}"
36123,13547,"Stockholm,Tyresö","Stockholm",59.2333,18.3,"TYRESÖ","{300000,400018,440016,400010,500002,600066}"
36124,13548,"Tyresö","Stockholm",59.2333,18.3,"TYRESÖ","{300000,400010}"
36125,13549,"Tyresö","Stockholm",59.2333,18.3,"TYRESÖ","{300000,400018,400010}"
36126,13550,"Tyresö","Stockholm",59.2333,18.3,"TYRESÖ","{300000,440016,400010,500002,600066}"
36127,13551,"Tyresö","Stockholm",59.2333,18.3,"TYRESÖ","{300000,440016,400010,500002,600066}"
36128,13552,"Tyresö","Stockholm",59.2333,18.3,"TYRESÖ","{300000,400006,440016,400010,500002,600066}"
36129,13553,"Tyresö","Stockholm",59.2333,18.3,"TYRESÖ","{300000,400009,400010}"
36130,13554,"Tyresö","Stockholm",59.2333,18.3,"TYRESÖ","{300000,400009,400010}"
36131,13555,"Tyresö","Stockholm",59.2333,18.3,"TYRESÖ","{300000,400010}"
36132,13558,"Tyresö,Haninge","Stockholm",59.2333,18.3,"TYRESÖ","{300000,400009,400010}"
36133,13559,"Stockholm","Stockholm",59.2333,18.3,"TYRESÖ","{300000,400018,400006,400010,440016,500002,600066}"
36134,13560,"Tyresö","Stockholm",59.2333,18.3,"TYRESÖ","{300000,400010}"
36135,13561,"Tyresö","Stockholm",59.2333,18.3,"TYRESÖ","{300000,400018,400010}"
36136,13562,"Tyresö","Stockholm",59.2333,18.3,"TYRESÖ","{300000,400018,400010}"
36137,13563,"Tyresö","Stockholm",59.2333,18.3,"TYRESÖ","{300000,400010}"
36138,13567,"Tyresö","Stockholm",59.2333,18.3,"TYRESÖ","{300000,400010}"
36139,13568,"Tyresö","Stockholm",59.2333,18.3,"TYRESÖ","{300000,400018,400010}"
36140,13569,"Tyresö","Stockholm",59.2333,18.3,"TYRESÖ","{300000,400018,400003,400009,400010}"
36141,13570,"Tyresö,Stockholm","Stockholm",59.3326,18.0649,"STOCKHOLM","{300000,440016,400010,500002,600066}"
36142,13635,"Haninge","Stockholm",,,"HANDEN","{300000,400009}"
36143,13636,"Haninge","Stockholm",,,"HANDEN","{300000,400009}"
36144,13637,"Haninge","Stockholm",59.1681,18.138,"HANDEN","{300000,400009}"
36145,13638,"Haninge","Stockholm",59.1681,18.138,"HANDEN","{300000,400009}"
36146,13639,"Haninge","Stockholm",59.1677,18.1448,"HANDEN","{300000,400009}"
36147,13640,"Haninge","Stockholm",59.1677,18.1448,"HANDEN","{300000,400009}"
36148,13641,"Haninge","Stockholm",59.1677,18.1448,"HANDEN","{300000,400009}"
36149,13642,"Haninge","Stockholm",59.1677,18.1448,"HANDEN","{300000,400009}"
36150,13643,"Haninge","Stockholm",59.1677,18.1448,"HANDEN","{300000,400009}"
36151,13644,"Haninge","Stockholm",59.1677,18.1448,"HANDEN","{300000,400009}"
36152,13645,"Haninge","Stockholm",59.1677,18.1448,"HANDEN","{300000,400009}"
36153,13646,"Haninge","Stockholm",59.1677,18.1448,"HANDEN","{300000,400009}"
36154,13647,"Haninge","Stockholm",59.1677,18.1448,"HANINGE","{300000,400009}"
36155,13648,"Haninge","Stockholm",59.1677,18.1448,"HANDEN","{300000,400006,400009}"
36156,13649,"Haninge","Stockholm",59.1677,18.1448,"VEGA","{300000,400006,400009}"
36157,13650,"Haninge,Huddinge","Stockholm",59.1677,18.1448,"JORDBRO","{300000,400006,400009}"
36158,13658,"Haninge","Stockholm",,,"VEGA","{300000,400009}"
36159,13659,"Haninge","Stockholm",59.1677,18.1448,"VENDELSÖ","{300000,400009}"
36160,13660,"Haninge","Stockholm",59.1677,18.1448,"BRANDBERGEN","{300000,400009}"
36161,13661,"Haninge","Stockholm",59.1677,18.1448,"BRANDBERGEN","{300000,400009}"
36162,13662,"Haninge","Stockholm",59.1677,18.1448,"BRANDBERGEN","{300000,400009}"
36163,13663,"Haninge","Stockholm",59.1677,18.1448,"BRANDBERGEN","{300000,400009}"
36164,13664,"Haninge","Stockholm",59.1677,18.1448,"HANINGE","{300000,400009}"
36165,13665,"Haninge","Stockholm",59.1677,18.1448,"SÖDERBY","{300000,400009}"
36166,13666,"Haninge","Stockholm",59.1677,18.1448,"VENDELSÖ","{300000,400009}"
36167,13667,"Haninge","Stockholm",59.1677,18.1448,"VENDELSÖ","{300000,400009}"
36168,13668,"Haninge","Stockholm",59.1677,18.1448,"VENDELSÖ","{300000,400009}"
36169,13669,"Haninge","Stockholm",59.1677,18.1448,"VENDELSÖ","{300000,400009}"
36170,13670,"Haninge","Stockholm",59.1677,18.1448,"VENDELSÖ","{300000,400009}"
36171,13671,"Haninge","Stockholm",59.1677,18.1448,"VENDELSÖ","{300000,400009}"
36172,13672,"Haninge","Stockholm",59.1677,18.1448,"VENDELSÖ","{300000,400009}"
36173,13673,"Haninge","Stockholm",59.1677,18.1448,"VENDELSÖ","{300000,400006,400009,400010}"
36174,13674,"Haninge","Stockholm",,,"NORRBY","{300000,400006,400009}"
36175,13675,"Haninge","Stockholm",59.1677,18.1448,"VENDELSÖ","{300000,400009,400010}"
36176,13731,"Haninge","Stockholm",59.1167,18.1,"VÄSTERHANINGE","{300000,400009}"
36177,13732,"Haninge","Stockholm",59.1167,18.1,"VÄSTERHANINGE","{300000,400009}"
36178,13734,"Haninge","Stockholm",59.1167,18.1,"VÄSTERHANINGE","{300000,400009}"
36179,13736,"Haninge","Stockholm",59.1167,18.1,"VÄSTERHANINGE","{300000,400009}"
36180,13737,"Haninge","Stockholm",59.1167,18.1,"VÄSTERHANINGE","{300000,400009}"
36181,13738,"Haninge","Stockholm",59.1167,18.1,"VÄSTERHANINGE","{300000,400009}"
36182,13739,"Haninge","Stockholm",,,"VÄSTERHANINGE","{300000,400009}"
36183,13740,"Haninge","Stockholm",59.1167,18.1,"VÄSTERHANINGE","{300000,400009}"
36184,13741,"Haninge","Stockholm",59.1167,18.1,"VÄSTERHANINGE","{300000,400009}"
36185,13742,"Haninge","Stockholm",59.1167,18.1,"VÄSTERHANINGE","{300000,400009}"
36186,13743,"Haninge","Stockholm",,,"VÄSTERHANINGE","{300000,400009}"
36187,13754,"Haninge","Stockholm",59.1,18.0331,"TUNGELSTA","{300000,400009}"
36188,13755,"Haninge","Stockholm",59.1,18.0331,"TUNGELSTA","{300000,400009}"
36189,13756,"Haninge","Stockholm",59.1,18.0331,"TUNGELSTA","{300000,400009,400025}"
36190,13757,"Haninge","Stockholm",59.1,18.0331,"TUNGELSTA","{300000,400009}"
36191,13761,"Haninge","Stockholm",,,"JORDBRO","{300000,400009}"
36192,13762,"Haninge","Stockholm",,,"JORDBRO","{300000,400009}"
36193,13763,"Haninge","Stockholm",,,"JORDBRO","{300000,400009}"
36194,13764,"Haninge","Stockholm",0,0,"JORDBRO","{300000,400009}"
36195,13765,"Haninge","Stockholm",,,"JORDBRO","{300000,400009}"
36196,13766,"Haninge","Stockholm",,,"JORDBRO","{300000,400009}"
36197,13767,"Haninge","Stockholm",0,0,"JORDBRO","{300000,400009}"
36198,13768,"Haninge","Stockholm",0,0,"JORDBRO","{300000,400009}"
36199,13769,"Haninge","Stockholm",,,"ÖSTERHANINGE","{300000,400009}"
36200,13770,"Haninge","Stockholm",,,"DALARÖ","{300000,400003,400009}"
36201,13771,"Haninge","Stockholm",0,0,"DALARÖ","{300000,400009,400010}"
36202,13791,"Haninge","Stockholm",59.1167,18.1,"VÄSTERHANINGE","{300000,400009,400025}"
36203,13792,"Haninge","Stockholm",59.1,18.0331,"TUNGELSTA","{300000,400009}"
36204,13793,"Haninge","Stockholm",59.1,18.0331,"TUNGELSTA","{300000,400009,400025}"
36205,13794,"Nynäshamn","Stockholm",59.1167,18.1,"NORRA SORUNDA","{300000,400007,400009,400025}"
36206,13795,"Tyresö,Haninge","Stockholm",,,"ÖSTERHANINGE","{300000,400009,400010}"
36207,13796,"Haninge","Stockholm",,,"GÅLÖ","{300000,400009}"
36208,13797,"Haninge","Stockholm",,,"ÅRSTA HAVSBAD","{300000,400009}"
36209,13830,"Nacka","Stockholm",59.2667,18.1833,"ÄLTA","{300000,400018}"
36210,13831,"Nacka","Stockholm",59.2667,18.1833,"ÄLTA","{300000,400018,440016,500002,600027}"
36211,13832,"Nacka","Stockholm",59.2667,18.1833,"ÄLTA","{300000,400018,440016,500002,600027}"
36212,13833,"Nacka","Stockholm",59.2667,18.1833,"ÄLTA","{300000,400018,440016,500002,600024,600027,600036}"
36213,13834,"Nacka","Stockholm",59.2667,18.1833,"ÄLTA","{300000,400018}"
36214,13835,"Nacka","Stockholm",59.2667,18.1833,"ÄLTA","{300000,400018,440016,500002,600066,600027}"
36215,13836,"Nacka","Stockholm",59.2667,18.1833,"ÄLTA","{300000,400018,400010}"
36216,13837,"Nacka","Stockholm",59.2667,18.1833,"ÄLTA","{300000,400018}"
36217,13839,"Nacka","Stockholm",,,"ÄLTA","{300000,400018,440016,500002,600066}"
36218,13840,"Nacka","Stockholm",59.2667,18.1833,"ÄLTA","{300000,400018,440016,500002,600066}"
36219,13930,"Värmdö","Stockholm",59.35,18.5,"VÄRMDÖ","{300000,400003}"
36220,13931,"Värmdö","Stockholm",59.35,18.5,"VÄRMDÖ","{300000,400003}"
36221,13932,"Värmdö","Stockholm",59.35,18.5,"VÄRMDÖ","{300000,400003}"
36222,13933,"Värmdö","Stockholm",59.35,18.5,"VÄRMDÖ","{300000,400003}"
36223,13934,"Värmdö","Stockholm",59.35,18.5,"VÄRMDÖ","{300000,400003}"
36224,13935,"Värmdö","Stockholm",59.35,18.5,"VÄRMDÖ","{300000,400003}"
36225,13936,"Värmdö","Stockholm",59.35,18.5,"VÄRMDÖ","{300000,400003}"
36226,13940,"Värmdö","Stockholm",59.35,18.5,"VÄRMDÖ","{300000,400003}"
36227,13941,"Värmdö","Stockholm",59.35,18.5,"VÄRMDÖ","{300000,400003}"
36228,13950,"Värmdö","Stockholm",59.35,18.5,"VÄRMDÖ","{300000,400003,400022}"
36229,13951,"Värmdö","Stockholm",59.35,18.5,"VÄRMDÖ","{300000,400003}"
36230,13952,"Värmdö","Stockholm",59.35,18.5,"VÄRMDÖ","{300000,400003}"
36231,13953,"Värmdö","Stockholm",59.35,18.5,"VÄRMDÖ","{300000,400003}"
36232,13954,"Värmdö","Stockholm",59.35,18.5,"VÄRMDÖ","{300000,400003}"
36233,13955,"Värmdö","Stockholm",59.35,18.5,"VÄRMDÖ","{300000,400003}"
36234,13956,"Värmdö","Stockholm",59.35,18.5,"VÄRMDÖ","{300000,400003}"
36235,13960,"Värmdö","Stockholm",59.35,18.5,"VÄRMDÖ","{300000,400003}"
36236,13970,"Värmdö","Stockholm",0,0,"STAVSNÄS","{300000,400003}"
36237,13971,"Värmdö","Stockholm",0,0,"STAVSNÄS","{300000,400003}"
36238,13972,"Värmdö","Stockholm",,,"DJURHAMN","{300000,400003}"
36239,13973,"Värmdö","Stockholm",,,"DJURHAMN","{300000,400003}"
36240,13974,"Värmdö","Stockholm",,,"DJURHAMN","{300000,400003}"
36241,13975,"Värmdö","Stockholm",,,"DJURHAMN","{300000,400003}"
36242,13990,"Värmdö","Stockholm",59.35,18.5,"VÄRMDÖ","{300000,400003,400022}"
36243,14130,"Huddinge","Stockholm",59.237,17.9819,"HUDDINGE","{300000,400006}"
36244,14131,"Huddinge","Stockholm",59.237,17.9819,"HUDDINGE","{300000,400006}"
36245,14132,"Huddinge","Stockholm",59.237,17.9819,"HUDDINGE","{300000,400006,400007}"
36246,14133,"Huddinge","Stockholm",59.237,17.9819,"HUDDINGE","{300000,400006}"
36247,14134,"Huddinge","Stockholm",59.237,17.9819,"HUDDINGE","{300000,400006}"
36248,14135,"Huddinge","Stockholm",59.237,17.9819,"HUDDINGE","{300000,400006}"
36249,14137,"Huddinge","Stockholm",59.237,17.9819,"HUDDINGE","{300000,400006,440016,500012,600059,600085}"
36250,14138,"Huddinge","Stockholm",59.237,17.9819,"HUDDINGE","{300000,400006}"
36251,14139,"Huddinge","Stockholm",59.237,17.9819,"HUDDINGE","{300000,400006,440016,500012,500011,600003,600083,600085}"
36252,14140,"Huddinge","Stockholm",59.237,17.9819,"HUDDINGE","{300000,440016,400006,500011,500012,600059,600085}"
36253,14141,"Huddinge","Stockholm",59.237,17.9819,"HUDDINGE","{300000,400006}"
36254,14142,"Huddinge","Stockholm",59.237,17.9819,"HUDDINGE","{300000,400006}"
36255,14143,"Huddinge","Stockholm",59.237,17.9819,"HUDDINGE","{300000,400006}"
36256,14144,"Huddinge","Stockholm",59.237,17.9819,"HUDDINGE","{300000,400006}"
36257,14145,"Huddinge","Stockholm",59.237,17.9819,"HUDDINGE","{300000,400006}"
36258,14146,"Huddinge","Stockholm",59.237,17.9819,"HUDDINGE","{300000,400006}"
36259,14147,"Huddinge","Stockholm",59.237,17.9819,"HUDDINGE","{300000,400006}"
36260,14148,"Huddinge","Stockholm",59.237,17.9819,"HUDDINGE","{300000,400006}"
36261,14149,"Huddinge","Stockholm",59.237,17.9819,"HUDDINGE","{300000,400006}"
36262,14150,"Huddinge","Stockholm",59.237,17.9819,"HUDDINGE","{300000,400006}"
36263,14151,"Huddinge","Stockholm",59.237,17.9819,"HUDDINGE","{300000,400006}"
36264,14152,"Huddinge","Stockholm",59.237,17.9819,"HUDDINGE","{300000,400006,400007}"
36265,14153,"Huddinge","Stockholm",59.237,17.9819,"HUDDINGE","{300000,400006}"
36266,14154,"Huddinge","Stockholm",59.237,17.9819,"HUDDINGE","{300000,400006}"
36267,14155,"Huddinge","Stockholm",59.237,17.9819,"HUDDINGE","{300000,400006}"
36268,14156,"Huddinge","Stockholm",59.237,17.9819,"HUDDINGE","{300000,400006}"
36269,14157,"Huddinge","Stockholm",59.237,17.9819,"HUDDINGE","{300000,400006}"
36270,14158,"Huddinge","Stockholm",,,"HUDDINGE","{300000,400006}"
36271,14159,"Huddinge","Stockholm",59.237,17.9819,"HUDDINGE","{300000,400006,400007}"
36272,14160,"Huddinge","Stockholm",59.237,17.9819,"HUDDINGE","{300000,400006}"
36273,14161,"Huddinge","Stockholm",59.237,17.9819,"HUDDINGE","{300000,400006}"
36274,14162,"Huddinge","Stockholm",59.237,17.9819,"HUDDINGE","{300000,400006}"
36275,14163,"Huddinge","Stockholm",0,0,"HUDDINGE","{300000,400006}"
36276,14168,"Huddinge","Stockholm",0,0,"HUDDINGE","{300000,400006}"
36277,14169,"Huddinge","Stockholm",0,0,"HUDDINGE","{300000,400006}"
36278,14170,"Huddinge","Stockholm",59.2833,17.9333,"SEGELTORP","{300000,400006}"
36279,14171,"Huddinge","Stockholm",59.2833,17.9333,"SEGELTORP","{300000,400006,440016,500011,500009,600060,600003}"
36280,14172,"Huddinge","Stockholm",59.2833,17.9333,"SEGELTORP","{300000,400006,440016,500011,600003}"
36281,14173,"Huddinge","Stockholm",59.2833,17.9333,"SEGELTORP","{300000,400006}"
36282,14174,"Huddinge","Stockholm",,,"SEGELTORP","{300000,400006,440016,500003,600060}"
36283,14175,"Huddinge","Stockholm",59.2833,17.9333,"KUNGENS KURVA","{300000,400006}"
36284,14191,"Huddinge,Haninge","Stockholm",59.237,17.9819,"HUDDINGE","{300000,400006,400007,400009}"
36285,14192,"Huddinge","Stockholm",,,"HUDDINGE","{300000,400006}"
36286,14230,"Huddinge","Stockholm",59.2167,18.15,"SKOGÅS","{300000,400006}"
36287,14231,"Huddinge","Stockholm",59.2167,18.15,"SKOGÅS","{300000,400006}"
36288,14232,"Huddinge","Stockholm",59.2167,18.15,"SKOGÅS","{300000,400006}"
36289,14233,"Huddinge","Stockholm",59.2167,18.15,"SKOGÅS","{300000,400006}"
36290,14234,"Huddinge","Stockholm",59.2167,18.15,"SKOGÅS","{300000,400006}"
36291,14235,"Huddinge","Stockholm",59.2167,18.15,"SKOGÅS","{300000,400006}"
36292,14240,"Huddinge","Stockholm",59.2167,18.15,"SKOGÅS","{300000,400006}"
36293,14241,"Huddinge","Stockholm",59.2167,18.15,"SKOGÅS","{300000,400006}"
36294,14242,"Huddinge","Stockholm",59.2167,18.15,"SKOGÅS","{300000,400006,400010}"
36295,14243,"Huddinge","Stockholm",59.2167,18.15,"SKOGÅS","{300000,400006,400010}"
36296,14250,"Huddinge","Stockholm",59.2167,18.15,"SKOGÅS","{300000,400006}"
36297,14251,"Huddinge","Stockholm",59.2167,18.15,"SKOGÅS","{300000,400006}"
36298,14252,"Huddinge","Stockholm",59.2167,18.15,"SKOGÅS","{300000,400006,400009}"
36299,14253,"Huddinge","Stockholm",59.2167,18.15,"SKOGÅS","{300000,400006}"
36300,14260,"Huddinge","Stockholm",59.2333,18.1333,"TRÅNGSUND","{300000,400006}"
36301,14261,"Huddinge","Stockholm",59.2333,18.1333,"TRÅNGSUND","{300000,400006}"
36302,14262,"Huddinge","Stockholm",59.2333,18.1333,"TRÅNGSUND","{300000,400006}"
36303,14263,"Huddinge","Stockholm",59.2333,18.1333,"TRÅNGSUND","{300000,400006}"
36304,14264,"Huddinge","Stockholm",59.2333,18.1333,"TRÅNGSUND","{300000,400006,440016,400010,500002,600066,600026}"
36305,14265,"Huddinge","Stockholm",59.2333,18.1333,"TRÅNGSUND","{300000,400006,440016,500010,500002,600026,600108}"
36306,14266,"Huddinge","Stockholm",59.2333,18.1333,"TRÅNGSUND","{300000,400006,440016,500010,600108,600107}"
36307,14291,"Huddinge","Stockholm",59.2167,18.15,"SKOGÅS","{300000,400006,400009}"
36308,14330,"Huddinge","Stockholm",59.2667,17.8833,"VÅRBY","{300000,400006,400007}"
36309,14331,"Huddinge","Stockholm",59.2667,17.8833,"VÅRBY","{300000,400006}"
36310,14332,"Huddinge","Stockholm",59.2667,17.8833,"VÅRBY","{300000,400006}"
36311,14340,"Huddinge","Stockholm",59.2667,17.8833,"VÅRBY","{300000,400006,400007}"
36312,14341,"Huddinge","Stockholm",59.2667,17.8833,"VÅRBY","{300000,400006}"
36313,14342,"Huddinge","Stockholm",59.2667,17.8833,"VÅRBY","{300000,400006,440016,500003,600035}"
36314,14343,"Huddinge","Stockholm",59.2667,17.8833,"VÅRBY","{300000,400006,440016,500003,600035}"
36315,14344,"Huddinge","Stockholm",59.2667,17.8833,"VÅRBY","{300000,400006,440016,500003}"
36316,14345,"Huddinge","Stockholm",59.2667,17.8833,"VÅRBY","{300000,400006,440016,500003,600035}"
36317,14346,"Huddinge,Stockholm","Stockholm",59.2667,17.8833,"VÅRBY","{300000,400005,400006,400007,440016,500003,600035}"
36318,14347,"Huddinge","Stockholm",59.2667,17.8833,"VÅRBY","{300000,400006,440016,500003,600035}"
36319,14430,"Salem","Stockholm",59.2,17.7333,"RÖNNINGE","{300000,400008}"
36320,14431,"Salem","Stockholm",59.2,17.7333,"RÖNNINGE","{300000,400008}"
36321,14432,"Salem","Stockholm",59.2,17.7333,"RÖNNINGE","{300000,400008}"
36322,14433,"Salem","Stockholm",59.2,17.7333,"RÖNNINGE","{300000,400008}"
36323,14437,"Salem","Stockholm",59.2,17.7333,"RÖNNINGE","{300000,400008}"
36324,14440,"Salem","Stockholm",59.2,17.7333,"RÖNNINGE","{300000,400008}"
36325,14442,"Salem","Stockholm",59.2,17.7333,"RÖNNINGE","{300000,400008}"
36326,14444,"Salem","Stockholm",59.2,17.7333,"RÖNNINGE","{300000,400008}"
36327,14451,"Salem","Stockholm",59.2,17.7333,"RÖNNINGE","{300000,400007,400008}"
36328,14452,"Salem","Stockholm",59.2,17.7333,"RÖNNINGE","{300000,400007,400008}"
36329,14461,"Salem","Stockholm",59.2,17.7333,"RÖNNINGE","{300000,400008}"
36330,14462,"Salem","Stockholm",59.2,17.7333,"RÖNNINGE","{300000,400017,400007,400008}"
36331,14463,"Salem","Stockholm",59.2,17.7333,"RÖNNINGE","{300000,400017,400008}"
36332,14464,"Salem","Stockholm",59.2,17.7333,"RÖNNINGE","{300000,400017,400008}"
36333,14550,"Botkyrka","Stockholm",59.25,17.7833,"NORSBORG","{300000,400006,400007}"
36334,14551,"Botkyrka","Stockholm",59.25,17.7833,"NORSBORG","{300000,400007}"
36335,14552,"Botkyrka","Stockholm",59.25,17.7833,"NORSBORG","{300000,400007}"
36336,14553,"Botkyrka","Stockholm",59.25,17.7833,"NORSBORG","{300000,400005,400006,400007}"
36337,14556,"Botkyrka","Stockholm",59.25,17.7833,"NORSBORG","{300000,400007}"
36338,14557,"Botkyrka","Stockholm",59.25,17.7833,"NORSBORG","{300000,400006,400007}"
36339,14558,"Botkyrka","Stockholm",59.25,17.7833,"NORSBORG","{300000,400007}"
36340,14559,"Botkyrka","Stockholm",59.25,17.7833,"NORSBORG","{300000,400007}"
36341,14560,"Botkyrka","Stockholm",59.25,17.7833,"NORSBORG","{300000,400006,400007}"
36342,14563,"Botkyrka","Stockholm",59.25,17.7833,"NORSBORG","{300000,400007}"
36343,14564,"Botkyrka","Stockholm",59.25,17.7833,"NORSBORG","{300000,400007}"
36344,14565,"Botkyrka","Stockholm",59.25,17.7833,"NORSBORG","{300000,400007}"
36345,14567,"Botkyrka","Stockholm",59.25,17.7833,"NORSBORG","{300000,400007}"
36346,14568,"Botkyrka","Stockholm",59.25,17.7833,"NORSBORG","{300000,400007}"
36347,14569,"Botkyrka","Stockholm",59.25,17.7833,"NORSBORG","{300000,400007}"
36348,14570,"Botkyrka","Stockholm",59.25,17.7833,"NORSBORG","{300000,400007}"
36349,14571,"Botkyrka","Stockholm",59.25,17.7833,"NORSBORG","{300000,400007}"
36350,14572,"Botkyrka","Stockholm",59.25,17.7833,"NORSBORG","{300000,400005,400007}"
36351,14573,"Botkyrka","Stockholm",59.25,17.7833,"NORSBORG","{300000,400005,400007}"
36352,14574,"Botkyrka","Stockholm",59.25,17.7833,"NORSBORG","{300000,400005,400007}"
36353,14575,"Botkyrka","Stockholm",,,"NORSBORG","{300000,400007}"
36354,14576,"Botkyrka","Stockholm",,,"NORSBORG","{300000,400007}"
36355,14590,"Salem,Botkyrka","Stockholm",59.25,17.7833,"NORSBORG","{300000,400005,400007,400008}"
36356,14630,"Botkyrka","Stockholm",59.2,17.8833,"TULLINGE","{300000,400007}"
36357,14631,"Botkyrka","Stockholm",59.2,17.8833,"TULLINGE","{300000,400007}"
36358,14632,"Botkyrka","Stockholm",59.2,17.8833,"TULLINGE","{300000,400007}"
36359,14633,"Haninge,Botkyrka","Stockholm",59.2,17.8833,"TULLINGE","{300000,400006,400007,400009}"
36360,14634,"Botkyrka","Stockholm",0,0,"TULLINGE","{300000,400007}"
36361,14636,"Botkyrka","Stockholm",59.2,17.8833,"TULLINGE","{300000,400007}"
36362,14637,"Botkyrka","Stockholm",59.2,17.8833,"TULLINGE","{300000,400007}"
36363,14638,"Botkyrka","Stockholm",59.2,17.8833,"TULLINGE","{300000,400007}"
36364,14640,"Botkyrka","Stockholm",59.2,17.8833,"TULLINGE","{300000,400007}"
36365,14641,"Botkyrka","Stockholm",59.2,17.8833,"TULLINGE","{300000,400007}"
36366,14645,"Botkyrka","Stockholm",59.2,17.8833,"TULLINGE","{300000,400007}"
36367,14646,"Botkyrka","Stockholm",59.2,17.8833,"TULLINGE","{300000,400007}"
36368,14648,"Botkyrka","Stockholm",59.2,17.8833,"TULLINGE","{300000,400006,400007}"
36369,14649,"Botkyrka","Stockholm",59.2,17.8833,"TULLINGE","{300000,400007}"
36370,14650,"Botkyrka","Stockholm",59.2,17.8833,"TULLINGE","{300000,400006,400007}"
36371,14652,"Botkyrka","Stockholm",59.2,17.8833,"TULLINGE","{300000,400006,400007}"
36372,14653,"Botkyrka","Stockholm",59.2,17.8833,"TULLINGE","{300000,400007}"
36373,14654,"Botkyrka","Stockholm",59.2,17.8833,"TULLINGE","{300000,400007}"
36374,14730,"Botkyrka","Stockholm",59.1986,17.8332,"TUMBA","{300000,400007}"
36375,14731,"Botkyrka","Stockholm",59.1986,17.8332,"TUMBA","{300000,400007}"
36376,14732,"Botkyrka","Stockholm",59.1986,17.8332,"TUMBA","{300000,400007}"
36377,14733,"Botkyrka","Stockholm",59.1986,17.8332,"TUMBA","{300000,400007}"
36378,14734,"Botkyrka","Stockholm",59.1986,17.8332,"TUMBA","{300000,400007}"
36379,14739,"Botkyrka","Stockholm",59.1986,17.8332,"TUMBA","{300000,400007}"
36380,14740,"Botkyrka","Stockholm",59.1986,17.8332,"TUMBA","{300000,400007}"
36381,14741,"Botkyrka","Stockholm",59.1986,17.8332,"TUMBA","{300000,400007}"
36382,14742,"Botkyrka","Stockholm",59.1986,17.8332,"TUMBA","{300000,400007}"
36383,14743,"Botkyrka","Stockholm",59.1986,17.8332,"TUMBA","{300000,400007}"
36384,14744,"Botkyrka","Stockholm",59.1986,17.8332,"TUMBA","{300000,400007}"
36385,14745,"Botkyrka","Stockholm",59.1986,17.8332,"TUMBA","{300000,400007}"
36386,14746,"Botkyrka","Stockholm",0,0,"TUMBA","{300000,400007}"
36387,14750,"Botkyrka","Stockholm",59.1986,17.8332,"TUMBA","{300000,400007}"
36388,14751,"Botkyrka","Stockholm",59.1986,17.8332,"TUMBA","{300000,400007}"
36389,14752,"Botkyrka","Stockholm",59.1986,17.8332,"TUMBA","{300000,400007}"
36390,14753,"Botkyrka","Stockholm",59.1986,17.8332,"TUMBA","{300000,400007}"
36391,14754,"Botkyrka","Stockholm",59.1986,17.8332,"TUMBA","{300000,400007}"
36392,14755,"Botkyrka","Stockholm",59.1986,17.8332,"TUMBA","{300000,400007}"
36393,14760,"Botkyrka","Stockholm",59.2,17.8,"UTTRAN","{300000,400007,400008}"
36394,14761,"Botkyrka","Stockholm",59.2,17.8,"UTTRAN","{300000,400007}"
36395,14762,"Botkyrka","Stockholm",59.2,17.8,"UTTRAN","{300000,400007}"
36396,14763,"Botkyrka","Stockholm",59.2,17.8,"UTTRAN","{300000,400007,400008}"
36397,14770,"Botkyrka","Stockholm",59.1988,17.829,"GRÖDINGE","{300000,400007}"
36398,14771,"Botkyrka","Stockholm",59.1988,17.829,"GRÖDINGE","{300000,400007}"
36399,14791,"Nynäshamn,Botkyrka,Haninge","Stockholm",59.1988,17.829,"GRÖDINGE","{300000,400017,400007,400009,400025}"
36400,14792,"Botkyrka","Stockholm",59.1988,17.829,"GRÖDINGE","{300000,400017,400007,400025}"
36401,14830,"Nynäshamn","Stockholm",58.9833,17.9,"ÖSMO","{300000,400025}"
36402,14831,"Nynäshamn","Stockholm",58.9833,17.9,"ÖSMO","{300000,400025}"
36403,14832,"Nynäshamn","Stockholm",58.9833,17.9,"ÖSMO","{300000,400025}"
36404,14833,"Nynäshamn","Stockholm",58.9833,17.9,"ÖSMO","{300000,400025}"
36405,14834,"Nynäshamn","Stockholm",58.9833,17.9,"ÖSMO","{300000,400025}"
36406,14835,"Nynäshamn","Stockholm",58.9833,17.9,"ÖSMO","{300000,400025}"
36407,14840,"Nynäshamn","Stockholm",58.9802,17.9374,"SEGERSÄNG","{300000,400025}"
